{"type":"Feature","properties":{"name":"Brooklyn, 1 m x 1 m at 1:10794","description":"Brooklyn land inside a 10.78 km square on the shared print frame at bearing 82.1207 deg, placed for the most borough area that still reaches both East River bridges and the Williamsburg-DUMBO-Red Hook-Sunset Park waterfront. Fills 999 x 999 mm at 1:10794, the coarsest scale a 250 x 250 mm plate may use under the 30,000,000-cell elevation limit with 20 m source padding.","source":"NYC Open Data, Borough Boundaries clipped to shoreline (gthc-hcne), retrieved 2026-09-21, Brooklyn feature, clipped to the print-frame square.","frame_bearing_deg":82.1207,"scale":10794.0,"max_chunk_size_mm":[250,250],"land_area_km2":101.3},"geometry":{"type":"Polygon","coordinates":[[[-73.9296957,40.7170739],[-73.9297061,40.7170108],[-73.9294956,40.7165734],[-73.9295017,40.7164998],[-73.92932,40.716112],[-73.9293157,40.7160781],[-73.9293219,40.7160121],[-73.9293613,40.7158983],[-73.9294198,40.715785],[-73.9294736,40.7157215],[-73.9295592,40.7156796],[-73.9302996,40.7155079],[-73.931493,40.7152085],[-73.9315589,40.7152149],[-73.9316593,40.7152086],[-73.9317927,40.715183],[-73.9320805,40.7150565],[-73.9321975,40.7149721],[-73.9322253,40.7149358],[-73.9322354,40.7148829],[-73.93223,40.714847],[-73.9321737,40.7147221],[-73.9321413,40.7146813],[-73.9317536,40.7147417],[-73.9315905,40.7143995],[-73.9315566,40.7143934],[-73.931542,40.7143596],[-73.931426,40.7143823],[-73.9313131,40.714144],[-73.931436,40.7141262],[-73.9312407,40.7137248],[-73.931453,40.7134388],[-73.9315914,40.7133848],[-73.9316453,40.7133428],[-73.9325777,40.7130891],[-73.9326168,40.7130737],[-73.9326391,40.7130526],[-73.9326469,40.7130007],[-73.9320326,40.7115902],[-73.9333848,40.7112337],[-73.9332835,40.7109787],[-73.931901,40.7113385],[-73.9312657,40.7099244],[-73.9310298,40.7093585],[-73.9309323,40.7091653],[-73.93078,40.7091033],[-73.9307686,40.7090811],[-73.9307565,40.708973],[-73.9306704,40.7088711],[-73.930543,40.7087689],[-73.9305159,40.7087318],[-73.930501,40.7086812],[-73.9303609,40.7087177],[-73.9303818,40.7087578],[-73.9303802,40.7088028],[-73.9303629,40.7088285],[-73.9302663,40.7089049],[-73.9302504,40.7089279],[-73.930681,40.709921],[-73.9309984,40.7106182],[-73.9311584,40.711001],[-73.9315461,40.7118554],[-73.9308597,40.7120649],[-73.9308016,40.7120989],[-73.9307794,40.7121339],[-73.9307789,40.7121604],[-73.9308126,40.7122058],[-73.9308553,40.7122207],[-73.9316103,40.712038],[-73.9318333,40.7125075],[-73.9318487,40.7125648],[-73.9318425,40.7126272],[-73.9318219,40.7126795],[-73.9317344,40.7127493],[-73.9305271,40.7130616],[-73.9305011,40.7130778],[-73.9304229,40.7131726],[-73.9304226,40.7131916],[-73.9307717,40.7139295],[-73.9310523,40.7146102],[-73.9308519,40.714903],[-73.9299167,40.7151498],[-73.9299028,40.715125],[-73.9293141,40.7152798],[-73.9292537,40.7153288],[-73.9284388,40.7155309],[-73.9289024,40.7165728],[-73.928906,40.716619],[-73.9288955,40.7166595],[-73.9288545,40.7167226],[-73.9287453,40.7168251],[-73.9286101,40.7169123],[-73.9282526,40.7170986],[-73.9281665,40.7171233],[-73.9280969,40.717129],[-73.926835,40.7174596],[-73.9252164,40.717629],[-73.9242029,40.7177351],[-73.9240483,40.7176243],[-73.9239313,40.7175141],[-73.9236399,40.7173207],[-73.923576,40.7172584],[-73.9234289,40.717082],[-73.9233536,40.7169659],[-73.9232316,40.7166994],[-73.9231678,40.7164789],[-73.9231172,40.7164762],[-73.923055,40.7163427],[-73.9233124,40.7162288],[-73.9233858,40.7162128],[-73.9234714,40.7161467],[-73.9236115,40.7161035],[-73.92359,40.7160281],[-73.9243133,40.7158471],[-73.9248329,40.7152829],[-73.9248855,40.7152672],[-73.9247663,40.715032],[-73.9247616,40.714976],[-73.9246901,40.714881],[-73.924615,40.7148271],[-73.9245557,40.7147537],[-73.9245258,40.7146904],[-73.9244315,40.7143648],[-73.9244191,40.7143496],[-73.9243903,40.7143492],[-73.9243475,40.7143071],[-73.9243359,40.7141226],[-73.9240591,40.7141116],[-73.9240401,40.7140083],[-73.9231394,40.7133947],[-73.9222347,40.712856],[-73.9218188,40.7117821],[-73.921546,40.7110433],[-73.9212207,40.7107906],[-73.9207485,40.7105336],[-73.9218918,40.7093961],[-73.9118071,40.703435],[-73.912904,40.7023619],[-73.9106788,40.701046],[-73.9118068,40.6999469],[-73.9110693,40.6995635],[-73.9095327,40.6986751],[-73.9087737,40.6982552],[-73.9072745,40.6973992],[-73.9042602,40.6957004],[-73.9048044,40.6951482],[-73.9049142,40.6950736],[-73.905796,40.6941272],[-73.9042879,40.6932781],[-73.9027882,40.6924183],[-73.9020728,40.6919992],[-73.9013984,40.69159],[-73.9018878,40.6910777],[-73.9004247,40.6881839],[-73.9011616,40.6878779],[-73.8964663,40.6823364],[-73.896368,40.6825998],[-73.8962863,40.6827584],[-73.8959973,40.6831969],[-73.8957795,40.6834972],[-73.8955486,40.6837919],[-73.895305,40.6840805],[-73.8950493,40.6843626],[-73.8941746,40.6852832],[-73.892583,40.6834919],[-73.8922456,40.6836939],[-73.8868165,40.6535438],[-73.8850958,40.6439817],[-73.8855776,40.6440409],[-73.8857417,40.6441819],[-73.8860058,40.6445029],[-73.8860057,40.6445713],[-73.8860911,40.644643],[-73.8862445,40.6447458],[-73.8867313,40.6451319],[-73.886796,40.6452395],[-73.8872011,40.6456022],[-73.8872204,40.6456816],[-73.8872742,40.6457062],[-73.887279,40.6457595],[-73.88733,40.6457985],[-73.8873503,40.6458607],[-73.8874344,40.6459367],[-73.8873603,40.6459872],[-73.8873882,40.6460786],[-73.8874469,40.646104],[-73.8874622,40.6461254],[-73.8874647,40.6461585],[-73.8875336,40.6461799],[-73.8876367,40.6463255],[-73.8876659,40.6465049],[-73.8876376,40.6465944],[-73.8876707,40.6466567],[-73.8876553,40.6467228],[-73.8877261,40.647143],[-73.8876443,40.6471916],[-73.8875676,40.6472674],[-73.8875317,40.6473374],[-73.8875162,40.6474152],[-73.8876157,40.6475184],[-73.8876461,40.6476234],[-73.887623,40.6476973],[-73.8876407,40.6478024],[-73.8877121,40.6478744],[-73.8877708,40.647892],[-73.8878415,40.6478785],[-73.8879649,40.6478805],[-73.8880211,40.6479039],[-73.8880696,40.647904],[-73.8881539,40.647871],[-73.8884347,40.6480074],[-73.8886364,40.6480245],[-73.8887035,40.6481151],[-73.8887383,40.6481305],[-73.8887819,40.6482032],[-73.8887918,40.6483133],[-73.888813,40.6483407],[-73.8888803,40.6483613],[-73.888965,40.6484779],[-73.8890548,40.6485608],[-73.889116,40.648592],[-73.8892468,40.6487457],[-73.8893126,40.6487841],[-73.8894554,40.6488375],[-73.8895343,40.6488802],[-73.8896092,40.6489437],[-73.8897071,40.6490525],[-73.8898413,40.6491374],[-73.8899288,40.6492412],[-73.890028,40.6493042],[-73.8901302,40.6493491],[-73.8902293,40.6493763],[-73.8902856,40.6493693],[-73.8903353,40.6493478],[-73.890137,40.6491704],[-73.8903473,40.6490336],[-73.8905353,40.6492077],[-73.890597,40.6492133],[-73.8906576,40.6492377],[-73.8907082,40.6492686],[-73.8908035,40.6493547],[-73.8908815,40.6493791],[-73.8909758,40.6493666],[-73.8910396,40.6493232],[-73.8911276,40.6492147],[-73.8911883,40.649163],[-73.8912025,40.6491344],[-73.8912037,40.6490964],[-73.8911575,40.648937],[-73.8911082,40.6488327],[-73.8908744,40.6485457],[-73.8907577,40.6484419],[-73.8905063,40.648245],[-73.8902379,40.6479234],[-73.8899358,40.6476603],[-73.8897933,40.6474873],[-73.8894324,40.6471515],[-73.8893509,40.6470347],[-73.8894735,40.6469567],[-73.8894894,40.646934],[-73.8894815,40.6469128],[-73.8894101,40.6467976],[-73.8891938,40.6465232],[-73.8887969,40.6460503],[-73.8887611,40.6460699],[-73.8893088,40.646746],[-73.8894139,40.646893],[-73.8894219,40.6469157],[-73.8894139,40.6469384],[-73.889376,40.6469748],[-73.889188,40.6470795],[-73.8891323,40.6470882],[-73.8890604,40.6470439],[-73.8890449,40.647047],[-73.8890489,40.647085],[-73.8889858,40.6471634],[-73.8888957,40.6472188],[-73.8888654,40.64722],[-73.8888458,40.6472076],[-73.8887812,40.6471944],[-73.8886905,40.6470959],[-73.8886414,40.6470796],[-73.88861,40.6470814],[-73.8885866,40.6470937],[-73.8885825,40.6471103],[-73.8885881,40.6471362],[-73.8886428,40.6471853],[-73.8886357,40.6472164],[-73.8886063,40.6472455],[-73.8885781,40.6473309],[-73.8885164,40.6473607],[-73.8884446,40.6473581],[-73.8883998,40.6473145],[-73.8883764,40.6472615],[-73.8883439,40.6472444],[-73.8883036,40.6471606],[-73.8882667,40.6471444],[-73.8882005,40.6471409],[-73.8881839,40.6470341],[-73.8882087,40.6469248],[-73.8881764,40.6468086],[-73.8881899,40.6467736],[-73.888227,40.6467454],[-73.8883078,40.6467156],[-73.8883526,40.646708],[-73.8884502,40.6467286],[-73.8885364,40.6467884],[-73.8885397,40.6468243],[-73.8885329,40.6468619],[-73.8885095,40.6468812],[-73.8884501,40.6469049],[-73.8884532,40.6469429],[-73.8884599,40.6469549],[-73.8885355,40.6469681],[-73.8885951,40.6469581],[-73.8886156,40.6469462],[-73.8886405,40.6469107],[-73.888654,40.6468851],[-73.8886552,40.6468295],[-73.8886418,40.6467851],[-73.8885993,40.6467125],[-73.8884996,40.6466637],[-73.8884301,40.6466474],[-73.8883595,40.646643],[-73.8882888,40.6466575],[-73.8881891,40.6466498],[-73.8881027,40.6466402],[-73.8880814,40.6466206],[-73.8880569,40.6465343],[-73.8880663,40.6464881],[-73.8880673,40.6463004],[-73.8880907,40.6462678],[-73.8880944,40.6462128],[-73.8882101,40.6461133],[-73.8882729,40.6460852],[-73.8882898,40.6460656],[-73.8882898,40.6460442],[-73.8882629,40.6460597],[-73.8882232,40.6460249],[-73.8882562,40.6460143],[-73.8882114,40.6460031],[-73.8880745,40.6460355],[-73.8880285,40.6460405],[-73.8880005,40.6460277],[-73.8879289,40.6459482],[-73.8878718,40.6459123],[-73.8877408,40.6457413],[-73.8877499,40.6457148],[-73.8877151,40.6457122],[-73.8876289,40.645625],[-73.8875428,40.6454977],[-73.8874163,40.6453643],[-73.8874096,40.6453293],[-73.8874545,40.6453088],[-73.8874803,40.6453063],[-73.8875072,40.6453166],[-73.8875016,40.645279],[-73.8875174,40.6452653],[-73.887826,40.6451281],[-73.8878866,40.6450957],[-73.8879169,40.6450675],[-73.8879259,40.6450658],[-73.887965,40.6451265],[-73.8879886,40.6451334],[-73.8880065,40.6451548],[-73.8880681,40.6451702],[-73.8880838,40.6451642],[-73.8880839,40.6451506],[-73.8880559,40.6451198],[-73.8879641,40.6450326],[-73.8879125,40.6450035],[-73.8878452,40.645035],[-73.8877353,40.6450426],[-73.887549,40.6451261],[-73.8873694,40.6452242],[-73.8873436,40.6452242],[-73.8872686,40.645166],[-73.8872451,40.6451062],[-73.8871992,40.645078],[-73.8871835,40.6450532],[-73.887187,40.6450139],[-73.8871736,40.6449797],[-73.887112,40.6449455],[-73.8870918,40.644919],[-73.8870908,40.6448677],[-73.8870618,40.6447669],[-73.8870148,40.6447276],[-73.8869846,40.6446771],[-73.8869164,40.644525],[-73.886912,40.6444738],[-73.8868717,40.6444447],[-73.8868033,40.6444404],[-73.8867842,40.6444463],[-73.8867752,40.6444651],[-73.8867965,40.6445198],[-73.8867852,40.6445223],[-73.8867102,40.6444386],[-73.8866389,40.6443824],[-73.8866308,40.6443522],[-73.8865489,40.6443125],[-73.8865762,40.6442944],[-73.8865422,40.6442321],[-73.8864333,40.6441931],[-73.8864169,40.6441795],[-73.8863721,40.6441367],[-73.8863375,40.6440504],[-73.886305,40.6440059],[-73.886226,40.6439491],[-73.8862466,40.6438401],[-73.8862365,40.6438168],[-73.8861372,40.643794],[-73.886098,40.6437478],[-73.8860723,40.6436957],[-73.8860253,40.6436615],[-73.8858795,40.6436605],[-73.8858504,40.6436519],[-73.8857686,40.6435937],[-73.8857002,40.6435757],[-73.8856465,40.6435389],[-73.8855389,40.6434978],[-73.8855132,40.6434722],[-73.8853798,40.6434396],[-73.8853518,40.6434191],[-73.8852531,40.6433908],[-73.8850683,40.6433035],[-73.8849674,40.6432682],[-73.8837128,40.6362947],[-73.8828845,40.6316896],[-73.8830136,40.6316261],[-73.8832218,40.6314423],[-73.8834527,40.6311558],[-73.8836445,40.6309433],[-73.883755,40.6305564],[-73.8837693,40.6302218],[-73.8834541,40.6299077],[-73.8840473,40.6295601],[-73.8826325,40.6282743],[-73.8836923,40.6275594],[-73.8851295,40.6288273],[-73.8857217,40.6284467],[-73.8860112,40.6286459],[-73.8861571,40.6286723],[-73.8863069,40.6286777],[-73.8865276,40.6286464],[-73.8875267,40.6283318],[-73.8882846,40.6278925],[-73.890423,40.6262786],[-73.8914872,40.6244817],[-73.8930056,40.6233565],[-73.8930739,40.6233566],[-73.8931195,40.6233957],[-73.8932685,40.6234142],[-73.8934493,40.6233466],[-73.8935188,40.6233527],[-73.8939491,40.6231853],[-73.8947028,40.6228038],[-73.8953356,40.6227377],[-73.8958273,40.6226863],[-73.896258,40.6229028],[-73.8964614,40.6230168],[-73.8975499,40.623489],[-73.9028982,40.6258776],[-73.9037037,40.6262179],[-73.9041279,40.6263062],[-73.908252,40.6282483],[-73.9091148,40.6285557],[-73.9106567,40.6292939],[-73.9115908,40.6296746],[-73.9132169,40.6304661],[-73.9141453,40.6308706],[-73.9144607,40.6309948],[-73.9146115,40.6310663],[-73.9148971,40.631227],[-73.9150311,40.6313158],[-73.9159021,40.6319496],[-73.9160039,40.6320104],[-73.9161207,40.6320528],[-73.9162468,40.6320749],[-73.9163455,40.6320743],[-73.9165409,40.6320538],[-73.9167288,40.6320084],[-73.9169038,40.6319391],[-73.9170608,40.6318482],[-73.9171952,40.6317382],[-73.9173939,40.6316138],[-73.9174616,40.6315166],[-73.9174983,40.6314102],[-73.9175043,40.6313553],[-73.9174912,40.6312457],[-73.9174455,40.6311413],[-73.9173697,40.6310477],[-73.9173216,40.6310065],[-73.9167275,40.6307682],[-73.9166869,40.6307374],[-73.9166239,40.6306648],[-73.9166025,40.6306243],[-73.9165818,40.6305386],[-73.9165917,40.6304519],[-73.9155794,40.6299957],[-73.9150217,40.62976],[-73.914895,40.6297239],[-73.9091803,40.6272014],[-73.9046421,40.6251332],[-73.9039611,40.6248336],[-73.9038554,40.6249402],[-73.9038796,40.6249495],[-73.9038668,40.6249688],[-73.9054621,40.6257748],[-73.9054456,40.6257928],[-73.905413,40.6257756],[-73.9053296,40.625865],[-73.9053187,40.6258585],[-73.9053973,40.6257673],[-73.903209,40.6246652],[-73.9031408,40.6247454],[-73.9031244,40.624738],[-73.9032085,40.6246408],[-73.9031523,40.6246134],[-73.9030701,40.6247055],[-73.9030543,40.6246995],[-73.9031244,40.6246189],[-73.9026275,40.6243701],[-73.9025587,40.6244489],[-73.9025466,40.6244442],[-73.9026306,40.6243494],[-73.9031323,40.6246023],[-73.9031737,40.6245557],[-73.9032033,40.6245706],[-73.9032705,40.6244842],[-73.9028854,40.6243106],[-73.9026933,40.6242133],[-73.9028326,40.624051],[-73.9027863,40.6240392],[-73.9027555,40.6240681],[-73.902719,40.6240524],[-73.9024154,40.6244629],[-73.9022871,40.6244099],[-73.9022969,40.6243965],[-73.9024038,40.6244424],[-73.9027137,40.6240233],[-73.9026191,40.6239827],[-73.9026236,40.6239766],[-73.9027194,40.6240176],[-73.9027453,40.6239826],[-73.9026356,40.6239355],[-73.9026436,40.6239247],[-73.9027021,40.6239498],[-73.9027124,40.6239359],[-73.9028482,40.6239942],[-73.9028749,40.623958],[-73.9027393,40.6238998],[-73.9027517,40.623883],[-73.9029162,40.6239545],[-73.9029283,40.6238508],[-73.9029234,40.6237987],[-73.9028919,40.6236973],[-73.9028657,40.6236492],[-73.9027939,40.6235605],[-73.9026925,40.6235259],[-73.9026382,40.6235168],[-73.9025827,40.6235134],[-73.9024725,40.6235239],[-73.9024198,40.6235377],[-73.9022884,40.6235934],[-73.9022489,40.6235913],[-73.9022156,40.6235751],[-73.9021965,40.6235487],[-73.9021885,40.6234494],[-73.9021502,40.6233138],[-73.9020824,40.6231851],[-73.9019872,40.6230668],[-73.9018673,40.6229624],[-73.901779,40.6229484],[-73.9016888,40.6229505],[-73.9015988,40.6229399],[-73.9014241,40.6229009],[-73.9012611,40.6228391],[-73.9011149,40.6227564],[-73.9009902,40.6226554],[-73.900937,40.622599],[-73.9008513,40.6224767],[-73.9007574,40.6221709],[-74.0077731,40.6109284],[-74.0160263,40.6563157],[-74.0158537,40.6562132],[-74.0154363,40.6566324],[-74.0161687,40.6570982],[-74.0162518,40.6575545],[-74.0162606,40.6576029],[-74.0150474,40.6569504],[-74.0144213,40.657608],[-74.0164898,40.6588629],[-74.0166919,40.6599732],[-74.0155417,40.6607584],[-74.0140043,40.659812],[-74.0136627,40.6600288],[-74.0124685,40.6593164],[-74.0118386,40.6589128],[-74.0114222,40.6593287],[-74.0111075,40.6597063],[-74.0140225,40.6615297],[-74.0131555,40.6619816],[-74.0126536,40.6619817],[-74.0102348,40.6604612],[-74.0085996,40.6595209],[-74.0074586,40.6605585],[-74.010372,40.6623989],[-74.0104633,40.6626421],[-74.0095507,40.6632677],[-74.0086837,40.663372],[-74.0061614,40.6618451],[-74.0056859,40.6622747],[-74.0042836,40.6614449],[-74.0041462,40.6615616],[-74.0051236,40.6621446],[-74.005141,40.6621844],[-74.0056204,40.6624939],[-74.0057849,40.6625825],[-74.0058271,40.6625901],[-74.005858,40.6625749],[-74.006227,40.6627878],[-74.0060896,40.6629224],[-74.0059236,40.6631083],[-74.0054578,40.6628614],[-74.0042255,40.662177],[-74.0038082,40.6619079],[-74.003488,40.6622406],[-74.0043656,40.6627357],[-74.004388,40.6627143],[-74.004555,40.6628164],[-74.0046016,40.6627677],[-74.0045899,40.6627337],[-74.0046057,40.6627189],[-74.0045437,40.6626801],[-74.004733,40.6624965],[-74.0053581,40.6628691],[-74.005156,40.6630474],[-74.0050616,40.662992],[-74.0049716,40.6630682],[-74.0051923,40.6632016],[-74.0052438,40.6631552],[-74.0052315,40.6631185],[-74.0052486,40.6631056],[-74.0051863,40.6630696],[-74.0053801,40.6628839],[-74.0059975,40.6632586],[-74.005795,40.6634362],[-74.0056996,40.6633768],[-74.0056135,40.6634584],[-74.0059084,40.6636383],[-74.0063057,40.6638634],[-74.0077213,40.6647186],[-74.0077255,40.6647427],[-74.0076743,40.6647911],[-74.0076388,40.664796],[-74.0073052,40.6645976],[-74.0072574,40.664643],[-74.0072661,40.664673],[-74.0072528,40.6646903],[-74.0073188,40.6647299],[-74.0071253,40.6649152],[-74.0065247,40.6645472],[-74.0067069,40.664363],[-74.0067991,40.6644183],[-74.0068822,40.6643404],[-74.0066294,40.6641879],[-74.0065358,40.6642574],[-74.0066416,40.6643202],[-74.0064498,40.6645062],[-74.0058416,40.664138],[-74.0060287,40.6639591],[-74.0061193,40.6640106],[-74.0062031,40.6639302],[-74.0060461,40.66384],[-74.0059926,40.6638908],[-74.0059214,40.6638496],[-74.0058983,40.6638757],[-74.00581,40.663874],[-74.0057578,40.6639228],[-74.0057797,40.6639878],[-74.0057481,40.6640119],[-74.0058233,40.6640546],[-74.0057575,40.6641144],[-74.0058927,40.6641903],[-74.0057491,40.6643265],[-74.0057415,40.6643818],[-74.0057705,40.6643975],[-74.0057446,40.6644176],[-74.005835,40.6644696],[-74.0058083,40.6644783],[-74.0058492,40.6645033],[-74.0058221,40.6645288],[-74.0056414,40.6645315],[-74.0056503,40.6639003],[-74.0043005,40.6630919],[-74.0042662,40.6631153],[-74.0036286,40.6627348],[-74.0034035,40.6629857],[-74.0045924,40.6637352],[-74.0043229,40.6640523],[-74.0052813,40.664657],[-74.0048619,40.6650648],[-74.0011352,40.6629017],[-74.0009442,40.6630764],[-74.000834,40.6630064],[-74.0004941,40.6633142],[-74.0005378,40.6633335],[-74.0000302,40.6638214],[-74.0000991,40.6638563],[-73.9995315,40.6643975],[-74.0029246,40.6664623],[-74.0022403,40.6667938],[-74.0020329,40.6667873],[-74.0020467,40.6667698],[-74.0016195,40.6667663],[-74.0012061,40.6670181],[-74.0014647,40.6671696],[-74.0006877,40.667546],[-73.9999815,40.6674503],[-73.999026,40.668443],[-73.9990537,40.6688518],[-73.9989452,40.6689738],[-73.9990263,40.6690079],[-73.9990504,40.6689217],[-73.9990363,40.6689172],[-73.9990432,40.6688802],[-73.9990637,40.6688735],[-73.9991799,40.6682966],[-73.9992405,40.6683063],[-73.9990794,40.6690383],[-73.9986558,40.6695148],[-73.9989116,40.6696486],[-73.9989013,40.6697273],[-73.9989168,40.6698046],[-73.9985582,40.6713355],[-73.9987694,40.671602],[-73.9989259,40.6714149],[-73.999311,40.6707726],[-73.9999108,40.6694987],[-74.0003034,40.6687169],[-74.0010566,40.6689457],[-74.0014153,40.6683594],[-74.0022151,40.6685786],[-74.0028948,40.6673485],[-74.0031908,40.6672632],[-74.0036946,40.6674276],[-74.0036303,40.6675675],[-74.0051023,40.6679756],[-74.0054702,40.6679513],[-74.0055273,40.6678992],[-74.0058637,40.6679938],[-74.0059728,40.6678821],[-74.0060022,40.6678901],[-74.0062567,40.6673367],[-74.0062265,40.6673341],[-74.0067739,40.6661845],[-74.0068368,40.6662012],[-74.0068715,40.6661287],[-74.0068332,40.6660932],[-74.0068364,40.6660561],[-74.0068587,40.6660337],[-74.0069048,40.6660215],[-74.00694,40.6660296],[-74.006964,40.6660514],[-74.0069713,40.6660793],[-74.0069601,40.6661064],[-74.0069218,40.6661302],[-74.0068846,40.666133],[-74.0068499,40.6662048],[-74.0068999,40.6662192],[-74.006046,40.6680532],[-74.0047539,40.6707214],[-74.0054393,40.6709215],[-74.0066157,40.6686232],[-74.0068035,40.6685914],[-74.0075482,40.6670517],[-74.0077965,40.6671598],[-74.0070872,40.6685914],[-74.0098541,40.6685236],[-74.0115402,40.6650859],[-74.0157487,40.6645683],[-74.0169027,40.6648466],[-74.0174445,40.665268],[-74.017722,40.6656332],[-74.0185147,40.6699876],[-74.0185761,40.6703924],[-74.0186127,40.670526],[-74.0187239,40.6711368],[-74.0188024,40.6715684],[-74.0175104,40.6710345],[-74.0166877,40.6654371],[-74.0165754,40.6650385],[-74.0164867,40.6649305],[-74.0160255,40.664863],[-74.015937,40.6654708],[-74.0122797,40.6657324],[-74.0108766,40.6686016],[-74.0103568,40.6686428],[-74.0103385,40.6690782],[-74.0105598,40.6691905],[-74.0109102,40.6691905],[-74.0108734,40.6697101],[-74.0115429,40.6697843],[-74.0116217,40.6701143],[-74.0115144,40.670407],[-74.0116253,40.670581],[-74.0140622,40.6697058],[-74.0142493,40.6697286],[-74.0142418,40.6698084],[-74.0117535,40.6706578],[-74.0117974,40.6707463],[-74.0118678,40.6708243],[-74.0119629,40.6708884],[-74.0120783,40.6709336],[-74.0122049,40.6709554],[-74.0123346,40.6709525],[-74.0124592,40.670925],[-74.0125172,40.6709025],[-74.0126196,40.6708419],[-74.013552,40.6712569],[-74.0136502,40.6712026],[-74.0137063,40.6711846],[-74.0138208,40.671169],[-74.0139363,40.6711791],[-74.0139913,40.6711936],[-74.0142741,40.6713793],[-74.0150801,40.6706857],[-74.0151998,40.670754],[-74.0138727,40.6718808],[-74.0142329,40.67213],[-74.0155964,40.6709705],[-74.0156863,40.6710388],[-74.0142872,40.6722412],[-74.0142292,40.6722072],[-74.0129759,40.6733279],[-74.0133638,40.6735915],[-74.0151192,40.672157],[-74.016321,40.6729083],[-74.0145795,40.674414],[-74.0149639,40.6746776],[-74.0181684,40.6719392],[-74.0188009,40.6722508],[-74.0172714,40.6736086],[-74.0177525,40.6740477],[-74.0177981,40.6740159],[-74.0178152,40.6740304],[-74.017893,40.6739653],[-74.0178797,40.6739566],[-74.0179443,40.6738828],[-74.0180108,40.6739132],[-74.0179576,40.6739869],[-74.0179234,40.6739754],[-74.017836,40.6740405],[-74.0178569,40.6740578],[-74.0178019,40.6740954],[-74.0181364,40.6743586],[-74.0181665,40.6743974],[-74.0181762,40.6744642],[-74.0180452,40.6747679],[-74.018024,40.6748528],[-74.0180357,40.6749588],[-74.0180092,40.6749935],[-74.0180168,40.6750094],[-74.0179237,40.675076],[-74.0179864,40.6751251],[-74.0178345,40.6752582],[-74.0181499,40.6754679],[-74.0181954,40.6754404],[-74.0182296,40.6754621],[-74.018298,40.6754592],[-74.0184124,40.6753654],[-74.0183196,40.6753028],[-74.018263,40.6753502],[-74.0181707,40.6752909],[-74.0183869,40.6750968],[-74.0184752,40.6751532],[-74.0184228,40.6752081],[-74.0185216,40.6752687],[-74.0187675,40.6750504],[-74.0188325,40.6750444],[-74.0188663,40.6750608],[-74.0188851,40.6750878],[-74.0188841,40.6751183],[-74.0184103,40.6755191],[-74.0184295,40.6755562],[-74.0184824,40.6756002],[-74.0185371,40.6757688],[-74.0185284,40.6758053],[-74.0185039,40.6758374],[-74.0184665,40.6758612],[-74.0184207,40.6758738],[-74.0180175,40.6758844],[-74.0179384,40.676016],[-74.0178911,40.6761561],[-74.01788,40.6762281],[-74.017883,40.6763728],[-74.0179197,40.6765148],[-74.0179728,40.6765128],[-74.0179769,40.6765679],[-74.0191089,40.6765443],[-74.0191214,40.6766156],[-74.0197209,40.6766134],[-74.0198112,40.6771089],[-74.0190826,40.6771396],[-74.0191418,40.6777231],[-74.0191893,40.6777412],[-74.0192189,40.6777773],[-74.0191774,40.6778269],[-74.0190826,40.6778315],[-74.0190411,40.6778766],[-74.0184304,40.6779083],[-74.018411,40.6784071],[-74.018595,40.6783978],[-74.0186253,40.6783696],[-74.0186624,40.6783943],[-74.0189541,40.6783815],[-74.0189832,40.6783524],[-74.0190214,40.6783772],[-74.0194724,40.6783583],[-74.0195386,40.678302],[-74.0196631,40.6783882],[-74.0195521,40.6784822],[-74.0194286,40.6784002],[-74.0192794,40.6784045],[-74.0192469,40.6784318],[-74.0192065,40.6784079],[-74.019064,40.6784156],[-74.0190326,40.678443],[-74.0189945,40.6784199],[-74.0188509,40.6784234],[-74.0188161,40.6784516],[-74.0187802,40.6784302],[-74.0186332,40.6784336],[-74.0186018,40.678461],[-74.0185648,40.6784396],[-74.0184054,40.6784422],[-74.0184179,40.6785496],[-74.0182703,40.6785542],[-74.0182831,40.6787283],[-74.0183407,40.6787287],[-74.0183831,40.6787448],[-74.0185788,40.6789831],[-74.0194562,40.6789325],[-74.0195041,40.6789423],[-74.0195401,40.6789682],[-74.0195531,40.6789915],[-74.0195526,40.6790293],[-74.0192813,40.6796481],[-74.0189281,40.6798443],[-74.0189911,40.679905],[-74.0177253,40.6806619],[-74.0176474,40.6806019],[-74.0175705,40.6806506],[-74.0174693,40.6806147],[-74.0152008,40.6819794],[-74.0153206,40.6821107],[-74.01282,40.6836224],[-74.0126243,40.6834687],[-74.0121229,40.6829622],[-74.0121348,40.6829059],[-74.0141055,40.6817125],[-74.0136086,40.6812219],[-74.013874,40.6810098],[-74.0130184,40.6804124],[-74.0096711,40.6832687],[-74.010086,40.6836554],[-74.0107731,40.6843586],[-74.0117827,40.68376],[-74.0119326,40.6838877],[-74.0081641,40.6861747],[-74.0079818,40.6862758],[-74.0079344,40.6862819],[-74.0078871,40.6862458],[-74.007827,40.6862406],[-74.0077683,40.6862491],[-74.0075447,40.6863182],[-74.0070199,40.6865264],[-74.0064415,40.6862885],[-74.0058822,40.6861958],[-74.0056299,40.6867842],[-74.0050037,40.687606],[-74.0045927,40.6882152],[-74.0038204,40.6889296],[-74.0034092,40.6896133],[-74.0029757,40.6904266],[-74.0019632,40.6901364],[-74.001853,40.690388],[-74.0009616,40.6901288],[-74.0006991,40.6906119],[-74.0013256,40.6914631],[-74.0019694,40.6918432],[-74.0017436,40.6924067],[-74.0012701,40.6932961],[-74.0009587,40.6940691],[-74.000701,40.6943879],[-74.0002687,40.6949658],[-73.999413,40.6963577],[-73.9995237,40.6965748],[-73.9994741,40.6967041],[-73.9992947,40.6967951],[-73.999182,40.6968852],[-73.998996,40.6968123],[-73.9989397,40.6969409],[-73.9988721,40.6969238],[-73.9987646,40.6971207],[-73.9988712,40.6971576],[-73.9983776,40.6980633],[-73.998021,40.6987617],[-73.997499,40.6996389],[-73.9973675,40.6996342],[-73.9971605,40.6997928],[-73.9971815,40.6999945],[-73.9971758,40.700106],[-73.9972446,40.7001414],[-73.9951383,40.7029741],[-73.9950459,40.7031318],[-73.9948004,40.703292],[-73.9946629,40.7034306],[-73.9949954,40.7036506],[-73.9948824,40.703788],[-73.9947693,40.7039529],[-73.9947142,40.7039967],[-73.9947923,40.7040684],[-73.9947923,40.7040889],[-73.9946981,40.7041647],[-73.9947761,40.7042459],[-73.9945698,40.7043763],[-73.9938634,40.704556],[-73.9938069,40.7045396],[-73.9937746,40.7044495],[-73.9935861,40.7045091],[-73.9936264,40.7045952],[-73.9935088,40.7046235],[-73.9926914,40.7046298],[-73.9925121,40.7046941],[-73.992127,40.7046896],[-73.992121,40.7043962],[-73.9918616,40.7040866],[-73.9914179,40.7040041],[-73.9909476,40.7040324],[-73.9907147,40.7043514],[-73.9905462,40.7044162],[-73.9903077,40.7048399],[-73.9902272,40.704934],[-73.9900911,40.7049435],[-73.9894936,40.704809],[-73.9893473,40.7047297],[-73.9892005,40.7047239],[-73.988989,40.7046904],[-73.9886972,40.7045646],[-73.9884074,40.7045545],[-73.9883033,40.7045405],[-73.98829,40.7050707],[-73.9879568,40.7051342],[-73.9872697,40.7051757],[-73.9868725,40.7051573],[-73.9867768,40.7051294],[-73.9867343,40.7051073],[-73.9866653,40.7050496],[-73.9866228,40.7049786],[-73.9865297,40.7049791],[-73.9864291,40.7050692],[-73.9864343,40.7053486],[-73.9847433,40.7055429],[-73.9834381,40.7056441],[-73.9834065,40.7054664],[-73.9833682,40.7054611],[-73.983264,40.7054851],[-73.9830864,40.7054771],[-73.9830899,40.7055115],[-73.9827416,40.7055724],[-73.9827486,40.7055327],[-73.9824596,40.7055088],[-73.982459,40.7055424],[-73.9823294,40.705552],[-73.9809251,40.7053693],[-73.9809086,40.7059079],[-73.9807407,40.7058552],[-73.98022,40.7058511],[-73.9802372,40.7057633],[-73.9795592,40.7057436],[-73.9795558,40.7057702],[-73.9793287,40.7057654],[-73.9792798,40.7057895],[-73.9792734,40.7059171],[-73.9792139,40.7059066],[-73.9791827,40.7059652],[-73.9790505,40.705967],[-73.9790577,40.7059529],[-73.9789292,40.7059316],[-73.9789311,40.7059249],[-73.9790608,40.705946],[-73.9792433,40.7055512],[-73.9789636,40.7055022],[-73.9788652,40.705868],[-73.9788191,40.7058625],[-73.9789277,40.7054962],[-73.9787383,40.7054631],[-73.9786391,40.7058306],[-73.9786016,40.705823],[-73.978697,40.7054563],[-73.9786844,40.7054542],[-73.9786453,40.705591],[-73.9784656,40.7055622],[-73.978432,40.7056786],[-73.9784569,40.7056847],[-73.978449,40.7057165],[-73.9784218,40.7057131],[-73.978389,40.7058303],[-73.9784218,40.705838],[-73.9784127,40.7058708],[-73.978381,40.7058664],[-73.9783923,40.7059707],[-73.9784014,40.7059724],[-73.9783991,40.7059827],[-73.9788564,40.7060595],[-73.978853,40.7060655],[-73.9783923,40.7059888],[-73.9783878,40.706006],[-73.9783447,40.706],[-73.9783516,40.7059655],[-73.9783742,40.7059681],[-73.9783629,40.7058638],[-73.9783414,40.7058595],[-73.9783471,40.7058251],[-73.9783742,40.7058303],[-73.978406,40.7057105],[-73.9783856,40.7057053],[-73.9783913,40.7056726],[-73.9784162,40.705676],[-73.9784541,40.7055604],[-73.9784268,40.7055568],[-73.9785931,40.7049786],[-73.978532,40.7048765],[-73.9784419,40.7048714],[-73.978162,40.7045284],[-73.9781769,40.7044684],[-73.9780207,40.704291],[-73.9773557,40.7041781],[-73.9773388,40.7042296],[-73.977212,40.7042139],[-73.9775122,40.7031968],[-73.9773608,40.7031395],[-73.9772954,40.7031893],[-73.9771356,40.7030056],[-73.9762386,40.7047756],[-73.975961,40.7047155],[-73.9769275,40.7027978],[-73.9766406,40.7024968],[-73.9761594,40.7021713],[-73.9755346,40.7030428],[-73.9753299,40.7029519],[-73.9759475,40.7020115],[-73.9760059,40.7019461],[-73.975896,40.7019005],[-73.9758142,40.7018952],[-73.975593,40.7018138],[-73.9756109,40.7017968],[-73.9755008,40.7017583],[-73.9754035,40.7019111],[-73.9745502,40.7015903],[-73.9757995,40.6997524],[-73.9758003,40.6996859],[-73.9757896,40.6996535],[-73.9757476,40.6995952],[-73.9756825,40.6995509],[-73.9756016,40.6995256],[-73.9755582,40.6995211],[-73.9754714,40.6995291],[-73.9753931,40.6995586],[-73.97536,40.6995805],[-73.9751825,40.6998728],[-73.9743185,40.7011943],[-73.9741151,40.7013053],[-73.9738888,40.7010852],[-73.9737621,40.7010807],[-73.9735442,40.7008923],[-73.973556,40.7008676],[-73.9729264,40.7002946],[-73.9725731,40.7000821],[-73.972392,40.7001663],[-73.972621,40.700466],[-73.9729829,40.7008063],[-73.9732686,40.7010509],[-73.97333,40.7010509],[-73.9735197,40.7012257],[-73.9735359,40.7013275],[-73.973757,40.7015341],[-73.9731868,40.7016698],[-73.972884,40.7014168],[-73.9728457,40.7014347],[-73.9711382,40.6999179],[-73.970979,40.6998565],[-73.970782,40.6999787],[-73.9708052,40.7000975],[-73.9725422,40.7016364],[-73.9725081,40.7016624],[-73.9733246,40.7024127],[-73.9728351,40.7027287],[-73.9698256,40.7002451],[-73.9694866,40.7005191],[-73.9728389,40.7033464],[-73.9726694,40.7035014],[-73.9692454,40.7013647],[-73.9689347,40.7016159],[-73.9689852,40.7017471],[-73.9723125,40.7038445],[-73.972158,40.7039702],[-73.9714566,40.7035087],[-73.9711034,40.7034597],[-73.9709331,40.7036248],[-73.9710196,40.7038156],[-73.9734304,40.7053014],[-73.9746557,40.7060743],[-73.9743908,40.7063258],[-73.9733923,40.7057332],[-73.9725488,40.7062045],[-73.9732988,40.7066977],[-73.9746297,40.7076811],[-73.9742362,40.7080244],[-73.9731063,40.7071356],[-73.9712249,40.7057899],[-73.9710966,40.7058501],[-73.9710044,40.7068282],[-73.9710569,40.7069464],[-73.9727576,40.7088313],[-73.9723203,40.7090829],[-73.9706698,40.7072597],[-73.9705406,40.7073161],[-73.9702622,40.7068875],[-73.9704888,40.7054007],[-73.9701689,40.7053619],[-73.9701808,40.7049293],[-73.9676211,40.7033485],[-73.9675152,40.7034374],[-73.9674767,40.7039499],[-73.9692969,40.7050883],[-73.9692363,40.7059943],[-73.969293,40.7070933],[-73.9698486,40.708003],[-73.969942,40.7093021],[-73.9696149,40.7101477],[-73.9696054,40.7102708],[-73.9696858,40.7103217],[-73.9700233,40.7103912],[-73.9700572,40.710418],[-73.9700678,40.7104666],[-73.9700354,40.7105093],[-73.9699912,40.7105253],[-73.9696619,40.7104997],[-73.9696311,40.7106569],[-73.9697746,40.7106863],[-73.9697857,40.7107272],[-73.9697688,40.7107883],[-73.9697369,40.7108224],[-73.9696923,40.7108469],[-73.9694181,40.7109381],[-73.9693743,40.7110207],[-73.9699077,40.7112681],[-73.9693104,40.7111079],[-73.9692349,40.7112405],[-73.969291,40.7112702],[-73.9692335,40.7114331],[-73.9691448,40.711457],[-73.9690958,40.7115631],[-73.9688659,40.7122319],[-73.9688161,40.7122519],[-73.9688654,40.7122724],[-73.9688382,40.7123896],[-73.9689408,40.7124188],[-73.9689247,40.7124634],[-73.9687839,40.7127565],[-73.9687224,40.7127376],[-73.9686661,40.7128572],[-73.9684985,40.7128069],[-73.9684697,40.7128247],[-73.968473,40.7128534],[-73.9684423,40.7129384],[-73.9685597,40.7129873],[-73.9685136,40.7130901],[-73.9542373,40.7145886],[-73.9296287,40.7171672],[-73.9296957,40.7170739]]]}}
