{
"type": "FeatureCollection",
"name": "chunks",
"crs": { "type": "name", "properties": { "name": "urn:ogc:def:crs:OGC:1.3:CRS84" } },
"features": [
{ "type": "Feature", "properties": { "label": "F1", "width_mm": 223.75, "height_mm": 93.125, "area_km2": 2.0543194408034062, "fill": 0.84620155460024238, "vertices": 286 }, "geometry": { "type": "Polygon", "coordinates": [ [ [ -73.886297988258875, 40.650662671305241 ], [ -73.8850958, 40.643981699999976 ], [ -73.8855776, 40.6440409 ], [ -73.8857417, 40.6441819 ], [ -73.8860058, 40.6445029 ], [ -73.8860057, 40.64457130000001 ], [ -73.8860911, 40.644643 ], [ -73.8862445, 40.6447458 ], [ -73.8867313, 40.64513190000001 ], [ -73.886796, 40.6452395 ], [ -73.8872011, 40.6456022 ], [ -73.8872204, 40.6456816 ], [ -73.8872742, 40.6457062 ], [ -73.887279, 40.6457595 ], [ -73.88733, 40.6457985 ], [ -73.8873503, 40.645860699999986 ], [ -73.8874344, 40.645936699999979 ], [ -73.8873603, 40.6459872 ], [ -73.8873882, 40.6460786 ], [ -73.8874469, 40.646104 ], [ -73.8874622, 40.6461254 ], [ -73.8874647, 40.646158499999984 ], [ -73.8875336, 40.646179900000014 ], [ -73.8876367, 40.6463255 ], [ -73.8876659, 40.646504900000011 ], [ -73.8876376, 40.646594400000012 ], [ -73.8876707, 40.6466567 ], [ -73.8876553, 40.646722800000013 ], [ -73.8877261, 40.647143 ], [ -73.887644300000019, 40.6471916 ], [ -73.8875676, 40.647267399999983 ], [ -73.8875317, 40.6473374 ], [ -73.8875162, 40.6474152 ], [ -73.8876157, 40.647518400000017 ], [ -73.8876461, 40.6476234 ], [ -73.887623, 40.6476973 ], [ -73.8876407, 40.64780240000001 ], [ -73.8877121, 40.647874399999985 ], [ -73.8877708, 40.647892 ], [ -73.8878415, 40.6478785 ], [ -73.8879649, 40.647880500000021 ], [ -73.8880211, 40.6479039 ], [ -73.8880696, 40.647904 ], [ -73.8881539, 40.647871 ], [ -73.8884347, 40.6480074 ], [ -73.8886364, 40.64802449999997 ], [ -73.8887035, 40.648115099999984 ], [ -73.8887383, 40.648130500000022 ], [ -73.8887819, 40.6482032 ], [ -73.8887918, 40.6483133 ], [ -73.888813, 40.6483407 ], [ -73.8888803, 40.648361299999983 ], [ -73.888965, 40.648477900000017 ], [ -73.8890548, 40.6485608 ], [ -73.889116, 40.648592 ], [ -73.8892468, 40.6487457 ], [ -73.8893126, 40.6487841 ], [ -73.8894554, 40.6488375 ], [ -73.8895343, 40.6488802 ], [ -73.8896092, 40.6489437 ], [ -73.8897071, 40.64905250000001 ], [ -73.8898413, 40.6491374 ], [ -73.8899288, 40.6492412 ], [ -73.890028, 40.64930420000001 ], [ -73.8901302, 40.6493491 ], [ -73.8902293, 40.6493763 ], [ -73.8902856, 40.6493693 ], [ -73.8903353, 40.649347799999987 ], [ -73.890137, 40.64917040000001 ], [ -73.8903473, 40.64903360000001 ], [ -73.8905353, 40.6492077 ], [ -73.890597, 40.6492133 ], [ -73.8906576, 40.6492377 ], [ -73.8907082, 40.6492686 ], [ -73.8908035, 40.649354699999989 ], [ -73.8908815, 40.6493791 ], [ -73.8909758, 40.6493666 ], [ -73.8910396, 40.6493232 ], [ -73.8911276, 40.649214699999987 ], [ -73.8911883, 40.649163 ], [ -73.8912025, 40.6491344 ], [ -73.8912037, 40.6490964 ], [ -73.8911575, 40.648937 ], [ -73.8911082, 40.6488327 ], [ -73.890874400000015, 40.6485457 ], [ -73.8907577, 40.648441899999987 ], [ -73.8905063, 40.648245 ], [ -73.8902379, 40.6479234 ], [ -73.8899358, 40.6476603 ], [ -73.8897933, 40.647487300000016 ], [ -73.8894324, 40.6471515 ], [ -73.8893509, 40.6470347 ], [ -73.8894735, 40.6469567 ], [ -73.8894894, 40.646934 ], [ -73.8894815, 40.646912800000038 ], [ -73.8894101, 40.6467976 ], [ -73.8891938, 40.6465232 ], [ -73.8887969, 40.6460503 ], [ -73.8887611, 40.6460699 ], [ -73.8893088, 40.646746 ], [ -73.8894139, 40.646893 ], [ -73.8894219, 40.6469157 ], [ -73.8894139, 40.6469384 ], [ -73.889376, 40.64697480000001 ], [ -73.889188, 40.6470795 ], [ -73.8891323, 40.6470882 ], [ -73.8890604, 40.647043900000021 ], [ -73.8890449, 40.647047 ], [ -73.8890489, 40.647085 ], [ -73.8889858, 40.6471634 ], [ -73.8888957, 40.6472188 ], [ -73.8888654, 40.64722 ], [ -73.8888458, 40.647207599999987 ], [ -73.8887812, 40.647194399999982 ], [ -73.8886905, 40.647095900000011 ], [ -73.8886414, 40.647079600000012 ], [ -73.88861, 40.6470814 ], [ -73.8885866, 40.6470937 ], [ -73.8885825, 40.6471103 ], [ -73.8885881, 40.6471362 ], [ -73.8886428, 40.6471853 ], [ -73.8886357, 40.6472164 ], [ -73.8886063, 40.6472455 ], [ -73.8885781, 40.647330900000014 ], [ -73.8885164, 40.647360700000014 ], [ -73.8884446, 40.6473581 ], [ -73.8883998, 40.6473145 ], [ -73.8883764, 40.647261500000013 ], [ -73.88834390000001, 40.6472444 ], [ -73.8883036, 40.647160599999985 ], [ -73.8882667, 40.6471444 ], [ -73.8882005, 40.647140899999982 ], [ -73.8881839, 40.6470341 ], [ -73.8882087, 40.646924800000015 ], [ -73.8881764, 40.6468086 ], [ -73.8881899, 40.646773599999989 ], [ -73.888227, 40.6467454 ], [ -73.8883078, 40.646715600000014 ], [ -73.8883526, 40.646708 ], [ -73.8884502, 40.646728600000017 ], [ -73.8885364, 40.6467884 ], [ -73.8885397, 40.6468243 ], [ -73.8885329, 40.6468619 ], [ -73.8885095, 40.6468812 ], [ -73.8884501, 40.646904900000017 ], [ -73.8884532, 40.6469429 ], [ -73.8884599, 40.6469549 ], [ -73.8885355, 40.6469681 ], [ -73.8885951, 40.6469581 ], [ -73.8886156, 40.6469462 ], [ -73.8886405, 40.6469107 ], [ -73.888654, 40.6468851 ], [ -73.8886552, 40.6468295 ], [ -73.8886418, 40.6467851 ], [ -73.8885993, 40.6467125 ], [ -73.8884996, 40.6466637 ], [ -73.8884301, 40.6466474 ], [ -73.8883595, 40.646643 ], [ -73.8882888, 40.6466575 ], [ -73.8881891, 40.6466498 ], [ -73.8881027, 40.6466402 ], [ -73.8880814, 40.6466206 ], [ -73.8880569, 40.6465343 ], [ -73.8880663, 40.6464881 ], [ -73.8880673, 40.646300400000015 ], [ -73.8880907, 40.6462678 ], [ -73.8880944, 40.6462128 ], [ -73.8882101, 40.646113300000032 ], [ -73.8882729, 40.6460852 ], [ -73.8882898, 40.6460656 ], [ -73.8882898, 40.6460442 ], [ -73.8882629, 40.646059699999988 ], [ -73.8882232, 40.646024899999986 ], [ -73.8882562, 40.646014299999983 ], [ -73.8882114, 40.6460031 ], [ -73.8880745, 40.6460355 ], [ -73.8880285, 40.6460405 ], [ -73.8880005, 40.6460277 ], [ -73.8879289, 40.6459482 ], [ -73.8878718, 40.645912300000013 ], [ -73.8877408, 40.6457413 ], [ -73.8877499, 40.6457148 ], [ -73.8877151, 40.6457122 ], [ -73.8876289, 40.645625 ], [ -73.8875428, 40.6454977 ], [ -73.8874163, 40.6453643 ], [ -73.8874096, 40.6453293 ], [ -73.8874545, 40.6453088 ], [ -73.8874803, 40.6453063 ], [ -73.8875072, 40.6453166 ], [ -73.8875016, 40.645279 ], [ -73.8875174, 40.64526529999997 ], [ -73.887826, 40.6451281 ], [ -73.887886600000016, 40.6450957 ], [ -73.8879169, 40.6450675 ], [ -73.8879259, 40.6450658 ], [ -73.887965, 40.6451265 ], [ -73.8879886, 40.6451334 ], [ -73.8880065, 40.6451548 ], [ -73.8880681, 40.64517020000001 ], [ -73.8880838, 40.645164200000025 ], [ -73.888083900000012, 40.6451506 ], [ -73.8880559, 40.645119800000018 ], [ -73.8879641, 40.645032600000022 ], [ -73.8879125, 40.6450035 ], [ -73.8878452, 40.645035 ], [ -73.8877353, 40.6450426 ], [ -73.887549, 40.645126100000013 ], [ -73.887369400000011, 40.6452242 ], [ -73.8873436, 40.6452242 ], [ -73.8872686, 40.645166 ], [ -73.8872451, 40.6451062 ], [ -73.8871992, 40.645078 ], [ -73.8871835, 40.6450532 ], [ -73.887187, 40.6450139 ], [ -73.8871736, 40.6449797 ], [ -73.887112, 40.644945500000013 ], [ -73.8870918, 40.644919 ], [ -73.8870908, 40.6448677 ], [ -73.8870618, 40.644766899999986 ], [ -73.8870148, 40.6447276 ], [ -73.8869846, 40.64467710000001 ], [ -73.8869164, 40.644525 ], [ -73.886912, 40.6444738 ], [ -73.8868717, 40.6444447 ], [ -73.8868033, 40.644440399999979 ], [ -73.8867842, 40.64444630000002 ], [ -73.8867752, 40.6444651 ], [ -73.8867965, 40.644519799999983 ], [ -73.8867852, 40.6445223 ], [ -73.8867102, 40.6444386 ], [ -73.8866389, 40.6443824 ], [ -73.8866308, 40.644352199999986 ], [ -73.8865489, 40.6443125 ], [ -73.8865762, 40.644294400000014 ], [ -73.8865422, 40.644232100000018 ], [ -73.8864333, 40.64419310000001 ], [ -73.8864169, 40.644179500000014 ], [ -73.8863721, 40.6441367 ], [ -73.8863375, 40.6440504 ], [ -73.886305, 40.644005900000025 ], [ -73.886226, 40.643949100000015 ], [ -73.8862466, 40.643840100000013 ], [ -73.8862365, 40.643816800000018 ], [ -73.8861372, 40.643794 ], [ -73.886098, 40.6437478 ], [ -73.8860723, 40.6436957 ], [ -73.8860253, 40.6436615 ], [ -73.8858795, 40.64366050000001 ], [ -73.8858504, 40.643651900000016 ], [ -73.8857686, 40.643593699999983 ], [ -73.8857002, 40.643575700000028 ], [ -73.8856465, 40.64353890000001 ], [ -73.8855389, 40.6434978 ], [ -73.8855132, 40.6434722 ], [ -73.8853798, 40.6434396 ], [ -73.8853518, 40.64341910000001 ], [ -73.8852531, 40.6433908 ], [ -73.8850683, 40.643303500000023 ], [ -73.8849674, 40.6432682 ], [ -73.8837128, 40.6362947 ], [ -73.8828845, 40.6316896 ], [ -73.8830136, 40.6316261 ], [ -73.8832218, 40.6314423 ], [ -73.8834527, 40.6311558 ], [ -73.8836445, 40.630943300000027 ], [ -73.883755, 40.6305564 ], [ -73.8837693, 40.630221800000015 ], [ -73.8834541, 40.6299077 ], [ -73.88404730000002, 40.6295601 ], [ -73.883922130013303, 40.629446345589997 ], [ -73.892662093347624, 40.628057818319192 ], [ -73.893505043080296, 40.632740442315232 ], [ -73.895021891358155, 40.632581935827552 ], [ -73.895923590199004, 40.63758954491621 ], [ -73.894785870901742, 40.637708435514718 ], [ -73.895479513046624, 40.641560442642948 ], [ -73.894847409217064, 40.641626491895458 ], [ -73.895697186131173, 40.646345197324045 ], [ -73.896455763211293, 40.646265932240304 ], [ -73.896750630120849, 40.647903030144995 ], [ -73.895992034777976, 40.647982297159096 ], [ -73.896182826906923, 40.649041596488964 ], [ -73.89074608951482, 40.649609539254378 ], [ -73.890850114304115, 40.650187343583596 ], [ -73.886297988258875, 40.650662671305241 ] ] ] } },
{ "type": "Feature", "properties": { "label": "D1", "width_mm": 221.0, "height_mm": 201.125, "area_km2": 3.0563917056724108, "fill": 0.59018185649492527, "vertices": 29 }, "geometry": { "type": "Polygon", "coordinates": [ [ [ -73.91363975025024, 40.658695619881193 ], [ -73.911995902321976, 40.658867599908248 ], [ -73.912638641315468, 40.66243060207664 ], [ -73.911879899652561, 40.662509973755476 ], [ -73.912105729196313, 40.663761839655983 ], [ -73.905656233416138, 40.664436309392727 ], [ -73.90582986286384, 40.665399292396444 ], [ -73.903806436103466, 40.66561081924791 ], [ -73.903702275030085, 40.66503302767233 ], [ -73.899149556598147, 40.665508828850179 ], [ -73.899461929147705, 40.667242215443373 ], [ -73.89490902968754, 40.667717848676403 ], [ -73.895464192358872, 40.670799443669758 ], [ -73.890025374538084, 40.671367382381931 ], [ -73.887233929289991, 40.655862942661614 ], [ -73.8868165, 40.6535438 ], [ -73.886297988258875, 40.650662671305241 ], [ -73.890850114304115, 40.650187343583596 ], [ -73.89074608951482, 40.649609539254378 ], [ -73.894412736523023, 40.649226536307474 ], [ -73.895019754952983, 40.652597040497909 ], [ -73.893376009333537, 40.652768754540986 ], [ -73.893722857984486, 40.654694759836389 ], [ -73.896251765527225, 40.654430567084965 ], [ -73.896546663518379, 40.656067663996048 ], [ -73.901351648348978, 40.655565532333675 ], [ -73.907018229432509, 40.654840640506308 ], [ -73.912810607237731, 40.654099351368004 ], [ -73.91363975025024, 40.658695619881193 ] ] ] } },
{ "type": "Feature", "properties": { "label": "G1", "width_mm": 85.375, "height_mm": 219.0, "area_km2": 0.53790014770291394, "fill": 0.24692326139254231, "vertices": 37 }, "geometry": { "type": "Polygon", "coordinates": [ [ [ -73.883922130013303, 40.629446345589997 ], [ -73.8826325, 40.6282743 ], [ -73.8836923, 40.6275594 ], [ -73.8851295, 40.6288273 ], [ -73.8857217, 40.6284467 ], [ -73.8860112, 40.6286459 ], [ -73.8861571, 40.6286723 ], [ -73.8863069, 40.6286777 ], [ -73.8865276, 40.6286464 ], [ -73.8875267, 40.6283318 ], [ -73.8882846, 40.6278925 ], [ -73.890423, 40.6262786 ], [ -73.8914872, 40.6244817 ], [ -73.8930056, 40.6233565 ], [ -73.8930739, 40.62335659999998 ], [ -73.8931195, 40.6233957 ], [ -73.8932685, 40.623414200000013 ], [ -73.8934493, 40.6233466 ], [ -73.8935188, 40.623352700000019 ], [ -73.8939491, 40.6231853 ], [ -73.8947028, 40.6228038 ], [ -73.8953356, 40.622737700000016 ], [ -73.8958273, 40.6226863 ], [ -73.896258, 40.6229028 ], [ -73.896461400000021, 40.6230168 ], [ -73.8975499, 40.623489 ], [ -73.9028982, 40.6258776 ], [ -73.9037037, 40.6262179 ], [ -73.9041279, 40.6263062 ], [ -73.908252, 40.62824830000001 ], [ -73.9091148, 40.6285557 ], [ -73.9106567, 40.629293899999986 ], [ -73.911035532596216, 40.629448297724721 ], [ -73.905877391205564, 40.628503540684065 ], [ -73.90042761494891, 40.626130095276764 ], [ -73.900549032468518, 40.626804191827929 ], [ -73.883922130013303, 40.629446345589997 ] ] ] } },
{ "type": "Feature", "properties": { "label": "C1", "width_mm": 236.0, "height_mm": 235.125, "area_km2": 5.0131339973886631, "fill": 0.77541406477767172, "vertices": 42 }, "geometry": { "type": "Polygon", "coordinates": [ [ [ -73.912812366343545, 40.663393574764989 ], [ -73.918755864403408, 40.662771647870265 ], [ -73.919364236153896, 40.666142018176757 ], [ -73.916834976208932, 40.666406718728666 ], [ -73.917478046355086, 40.669969690695766 ], [ -73.918869214716722, 40.669824104559666 ], [ -73.919564581804266, 40.67367595205841 ], [ -73.92019696488218, 40.673609767188317 ], [ -73.920979389183501, 40.677943084200052 ], [ -73.919082115242105, 40.678141641177774 ], [ -73.920222517261266, 40.684457526554297 ], [ -73.914916753524963, 40.685053023413737 ], [ -73.91453437409335, 40.682934495514949 ], [ -73.91010700787298, 40.683397498188079 ], [ -73.910176504507689, 40.68378268786693 ], [ -73.905496052567884, 40.684271965380844 ], [ -73.905860783805849, 40.686294224921262 ], [ -73.900311029647767, 40.686874120298071 ], [ -73.8964663, 40.6823364 ], [ -73.896368, 40.6825998 ], [ -73.8962863, 40.6827584 ], [ -73.8959973, 40.6831969 ], [ -73.8957795, 40.683497200000012 ], [ -73.8955486, 40.6837919 ], [ -73.895305, 40.6840805 ], [ -73.8950493, 40.6843626 ], [ -73.8941746, 40.6852832 ], [ -73.892583, 40.6834919 ], [ -73.8922456, 40.6836939 ], [ -73.890025374538084, 40.671367382381931 ], [ -73.895464192358872, 40.670799443669758 ], [ -73.89490902968754, 40.667717848676403 ], [ -73.899461929147705, 40.667242215443373 ], [ -73.899149556598147, 40.665508828850179 ], [ -73.903702275030085, 40.66503302767233 ], [ -73.903806436103466, 40.66561081924791 ], [ -73.90582986286384, 40.665399292396444 ], [ -73.905656233416138, 40.664436309392727 ], [ -73.912105729196313, 40.663761839655983 ], [ -73.911879899652561, 40.662509973755476 ], [ -73.912638641315468, 40.66243060207664 ], [ -73.912812366343545, 40.663393574764989 ] ] ] } },
{ "type": "Feature", "properties": { "label": "B2", "width_mm": 51.0, "height_mm": 205.875, "area_km2": 0.59129992872718762, "fill": 0.48335833386185412, "vertices": 17 }, "geometry": { "type": "Polygon", "coordinates": [ [ [ -73.901074791592563, 40.687775456869488 ], [ -73.900311029647767, 40.686874120298071 ], [ -73.905860783805849, 40.686294224921262 ], [ -73.905496052567884, 40.684271965380844 ], [ -73.910176504507689, 40.68378268786693 ], [ -73.91010700787298, 40.683397498188079 ], [ -73.91453437409335, 40.682934495514949 ], [ -73.914916753524963, 40.685053023413737 ], [ -73.926286131184114, 40.683776659104169 ], [ -73.926562451087591, 40.685306049458674 ], [ -73.916822001562281, 40.686325448277081 ], [ -73.916891540038137, 40.686710633759638 ], [ -73.911578411966318, 40.687266325089468 ], [ -73.911752186388995, 40.688229296489816 ], [ -73.906438894495039, 40.68878475042002 ], [ -73.90616097828395, 40.687243983270108 ], [ -73.901074791592563, 40.687775456869488 ] ] ] } },
{ "type": "Feature", "properties": { "label": "A2", "width_mm": 242.0, "height_mm": 234.875, "area_km2": 4.6558676109134902, "fill": 0.70304582921682346, "vertices": 39 }, "geometry": { "type": "Polygon", "coordinates": [ [ [ -73.921815072112381, 40.709350753265717 ], [ -73.9118071, 40.703435 ], [ -73.912904, 40.702361900000014 ], [ -73.9106788, 40.701046 ], [ -73.9118068, 40.6999469 ], [ -73.9110693, 40.6995635 ], [ -73.9095327, 40.6986751 ], [ -73.9087737, 40.6982552 ], [ -73.907274500000014, 40.6973992 ], [ -73.9042602, 40.6957004 ], [ -73.9048044, 40.6951482 ], [ -73.9049142, 40.6950736 ], [ -73.905796, 40.6941272 ], [ -73.9042879, 40.6932781 ], [ -73.902788200000018, 40.6924183 ], [ -73.9020728, 40.6919992 ], [ -73.9013984, 40.69159 ], [ -73.9018878, 40.6910777 ], [ -73.9004247, 40.6881839 ], [ -73.9011616, 40.687877899999982 ], [ -73.901074791592563, 40.687775456869488 ], [ -73.90616097828395, 40.687243983270108 ], [ -73.906438894495039, 40.68878475042002 ], [ -73.911752186388995, 40.688229296489816 ], [ -73.911578411966318, 40.687266325089468 ], [ -73.916891540038137, 40.686710633759638 ], [ -73.916822001562281, 40.686325448277081 ], [ -73.926562451087591, 40.685306049458674 ], [ -73.926945226263527, 40.687424536745226 ], [ -73.92998124426785, 40.687106623466299 ], [ -73.931495558668331, 40.695484220148039 ], [ -73.929977366152585, 40.695643206608786 ], [ -73.930865134921035, 40.700554209776676 ], [ -73.932889536291583, 40.70034220789497 ], [ -73.933551205113929, 40.704001368724633 ], [ -73.931400162401346, 40.704226631799237 ], [ -73.93204507237742, 40.707793357289759 ], [ -73.924285867611601, 40.70909223093215 ], [ -73.921815072112381, 40.709350753265717 ] ] ] } },
{ "type": "Feature", "properties": { "label": "F2", "width_mm": 250.0, "height_mm": 205.0, "area_km2": 4.4154885472918259, "fill": 0.7394691587412735, "vertices": 62 }, "geometry": { "type": "Polygon", "coordinates": [ [ [ -73.892662093347624, 40.628057818319192 ], [ -73.900549032468518, 40.626804191827929 ], [ -73.90042761494891, 40.626130095276764 ], [ -73.905877391205564, 40.628503540684065 ], [ -73.911035532596216, 40.629448297724721 ], [ -73.9115908, 40.6296746 ], [ -73.9132169, 40.6304661 ], [ -73.9141453, 40.6308706 ], [ -73.9144607, 40.6309948 ], [ -73.9146115, 40.6310663 ], [ -73.9148971, 40.631227 ], [ -73.9150311, 40.63131580000001 ], [ -73.9159021, 40.6319496 ], [ -73.9160039, 40.6320104 ], [ -73.9161207, 40.632052800000018 ], [ -73.9162468, 40.632074900000013 ], [ -73.9163455, 40.632074299999985 ], [ -73.9165409, 40.6320538 ], [ -73.9167288, 40.632008399999982 ], [ -73.9169038, 40.6319391 ], [ -73.9170608, 40.631848199999986 ], [ -73.9171952, 40.631738200000015 ], [ -73.9173939, 40.6316138 ], [ -73.9174616, 40.6315166 ], [ -73.9174983, 40.631410200000012 ], [ -73.9175043, 40.63135530000001 ], [ -73.9174912, 40.6312457 ], [ -73.9174455, 40.6311413 ], [ -73.9173697, 40.631047700000011 ], [ -73.9173216, 40.6310065 ], [ -73.9167275, 40.6307682 ], [ -73.9166869, 40.6307374 ], [ -73.9166239, 40.6306648 ], [ -73.9166025, 40.6306243 ], [ -73.9165818, 40.6305386 ], [ -73.9165917, 40.6304519 ], [ -73.9155794, 40.629995700000016 ], [ -73.915475870389585, 40.629951945750939 ], [ -73.918339334133123, 40.629652134142887 ], [ -73.919662739759147, 40.641385585114818 ], [ -73.921179722351965, 40.641226733704343 ], [ -73.921840162761185, 40.644885987772888 ], [ -73.91905887284824, 40.645177215922381 ], [ -73.919128381352564, 40.645562401922604 ], [ -73.914071399767053, 40.6460917383246 ], [ -73.914297214858621, 40.647343602278013 ], [ -73.909872208705238, 40.647806597812355 ], [ -73.910202142331443, 40.649636256615985 ], [ -73.905650520906519, 40.650112315899953 ], [ -73.90523392034153, 40.647801151351167 ], [ -73.900555956310072, 40.648290229951506 ], [ -73.900417148865088, 40.647519835694808 ], [ -73.896750630120849, 40.647903030144995 ], [ -73.896455763211293, 40.646265932240304 ], [ -73.895697186131173, 40.646345197324045 ], [ -73.894847409217064, 40.641626491895458 ], [ -73.895479513046624, 40.641560442642948 ], [ -73.894785870901742, 40.637708435514718 ], [ -73.895923590199004, 40.63758954491621 ], [ -73.895021891358155, 40.632581935827552 ], [ -73.893505043080296, 40.632740442315232 ], [ -73.892662093347624, 40.628057818319192 ] ] ] } },
{ "type": "Feature", "properties": { "label": "E2", "width_mm": 95.25, "height_mm": 245.0, "area_km2": 1.9096119904499997, "fill": 0.70234296514684913, "vertices": 28 }, "geometry": { "type": "Polygon", "coordinates": [ [ [ -73.894412736523023, 40.649226536307474 ], [ -73.896182826906923, 40.649041596488964 ], [ -73.895992034777976, 40.647982297159096 ], [ -73.900417148865088, 40.647519835694808 ], [ -73.900555956310072, 40.648290229951506 ], [ -73.90523392034153, 40.647801151351167 ], [ -73.905650520906519, 40.650112315899953 ], [ -73.910202142331443, 40.649636256615985 ], [ -73.909872208705238, 40.647806597812355 ], [ -73.914297214858621, 40.647343602278013 ], [ -73.914071399767053, 40.6460917383246 ], [ -73.919128381352564, 40.645562401922604 ], [ -73.91905887284824, 40.645177215922381 ], [ -73.921840162761185, 40.644885987772888 ], [ -73.922187792073814, 40.646811908844235 ], [ -73.92383131669699, 40.646639782930414 ], [ -73.924509342347392, 40.650395315182401 ], [ -73.920463504598899, 40.650818991151752 ], [ -73.921092073856968, 40.654301375002802 ], [ -73.918669494080788, 40.654440859953048 ], [ -73.91394388348985, 40.653954282409636 ], [ -73.901351648348978, 40.655565532333675 ], [ -73.896546663518379, 40.656067663996048 ], [ -73.896251765527225, 40.654430567084965 ], [ -73.893722857984486, 40.654694759836389 ], [ -73.893376009333537, 40.652768754540986 ], [ -73.895019754952983, 40.652597040497909 ], [ -73.894412736523023, 40.649226536307474 ] ] ] } },
{ "type": "Feature", "properties": { "label": "G2", "width_mm": 95.125, "height_mm": 131.0, "area_km2": 0.92483158061842985, "fill": 0.63698889116330659, "vertices": 87 }, "geometry": { "type": "Polygon", "coordinates": [ [ [ -73.915475870389585, 40.629951945750939 ], [ -73.9150217, 40.62976 ], [ -73.914895, 40.6297239 ], [ -73.9091803, 40.6272014 ], [ -73.9046421, 40.6251332 ], [ -73.9039611, 40.6248336 ], [ -73.9038554, 40.624940199999983 ], [ -73.9038796, 40.624949499999985 ], [ -73.9038668, 40.624968799999984 ], [ -73.9054621, 40.6257748 ], [ -73.9054456, 40.6257928 ], [ -73.905413, 40.6257756 ], [ -73.9053296, 40.625865 ], [ -73.9053187, 40.6258585 ], [ -73.9053973, 40.6257673 ], [ -73.903209, 40.62466520000001 ], [ -73.9031408, 40.6247454 ], [ -73.9031244, 40.624738 ], [ -73.9032085, 40.6246408 ], [ -73.9031523, 40.6246134 ], [ -73.9030701, 40.6247055 ], [ -73.9030543, 40.6246995 ], [ -73.9031244, 40.6246189 ], [ -73.9026275, 40.6243701 ], [ -73.9025587, 40.6244489 ], [ -73.9025466, 40.6244442 ], [ -73.9026306, 40.6243494 ], [ -73.9031323, 40.6246023 ], [ -73.9031737, 40.6245557 ], [ -73.9032033, 40.6245706 ], [ -73.9032705, 40.6244842 ], [ -73.9028854, 40.6243106 ], [ -73.9026933, 40.6242133 ], [ -73.9028326, 40.624051 ], [ -73.9027863, 40.6240392 ], [ -73.9027555, 40.6240681 ], [ -73.902719, 40.624052400000011 ], [ -73.9024154, 40.624462899999983 ], [ -73.9022871, 40.624409900000011 ], [ -73.9022969, 40.624396500000017 ], [ -73.9024038, 40.6244424 ], [ -73.9027137, 40.6240233 ], [ -73.9026191, 40.6239827 ], [ -73.9026236, 40.6239766 ], [ -73.9027194, 40.6240176 ], [ -73.9027453, 40.6239826 ], [ -73.9026356, 40.6239355 ], [ -73.9026436, 40.6239247 ], [ -73.9027021, 40.6239498 ], [ -73.9027124, 40.6239359 ], [ -73.9028482, 40.6239942 ], [ -73.9028749, 40.623958 ], [ -73.9027393, 40.6238998 ], [ -73.9027517, 40.623883 ], [ -73.9029162, 40.6239545 ], [ -73.9029283, 40.6238508 ], [ -73.9029234, 40.6237987 ], [ -73.9028919, 40.623697300000011 ], [ -73.9028657, 40.6236492 ], [ -73.9027939, 40.6235605 ], [ -73.9026925, 40.623525900000011 ], [ -73.9026382, 40.6235168 ], [ -73.9025827, 40.6235134 ], [ -73.9024725, 40.6235239 ], [ -73.9024198, 40.6235377 ], [ -73.9022884, 40.6235934 ], [ -73.9022489, 40.623591300000015 ], [ -73.9022156, 40.623575099999989 ], [ -73.9021965, 40.6235487 ], [ -73.9021885, 40.6234494 ], [ -73.9021502, 40.6233138 ], [ -73.9020824, 40.6231851 ], [ -73.9019872, 40.6230668 ], [ -73.9018673, 40.6229624 ], [ -73.901779, 40.6229484 ], [ -73.9016888, 40.6229505 ], [ -73.9015988, 40.6229399 ], [ -73.9014241, 40.6229009 ], [ -73.9012611, 40.6228391 ], [ -73.9011149, 40.6227564 ], [ -73.9009902, 40.6226554 ], [ -73.900937, 40.622599 ], [ -73.9008513, 40.622476700000021 ], [ -73.9007574, 40.6221709 ], [ -73.91730060212933, 40.620439716989644 ], [ -73.918339334133123, 40.629652134142887 ], [ -73.915475870389585, 40.629951945750939 ] ] ] } },
{ "type": "Feature", "properties": { "label": "C2", "width_mm": 208.625, "height_mm": 163.0, "area_km2": 3.1352794888113285, "fill": 0.79132972526544887, "vertices": 27 }, "geometry": { "type": "Polygon", "coordinates": [ [ [ -73.935002359203253, 40.682797352265915 ], [ -73.920222517261266, 40.684457526554297 ], [ -73.919082115242105, 40.678141641177774 ], [ -73.920979389183501, 40.677943084200052 ], [ -73.92019696488218, 40.673609767188317 ], [ -73.919564581804266, 40.67367595205841 ], [ -73.918869214716722, 40.669824104559666 ], [ -73.917478046355086, 40.669969690695766 ], [ -73.917252094961313, 40.668717836261628 ], [ -73.920919640005764, 40.66833398912172 ], [ -73.921006569359022, 40.668815468922055 ], [ -73.928341584726837, 40.668047418331533 ], [ -73.927610980832483, 40.664003031316568 ], [ -73.93178402798678, 40.663565854542398 ], [ -73.931697380291766, 40.66278999290239 ], [ -73.934426797627466, 40.662503967419866 ], [ -73.936722519269992, 40.662373721579456 ], [ -73.937451481644203, 40.666406014793139 ], [ -73.936439804804365, 40.666512060750065 ], [ -73.937240611090942, 40.670941564385309 ], [ -73.938378821463161, 40.670822254197752 ], [ -73.939075325710562, 40.674673983217943 ], [ -73.937810575613284, 40.674806556992557 ], [ -73.938594158440111, 40.679139753504586 ], [ -73.940111954698423, 40.678980653052918 ], [ -73.94068671777967, 40.682158318129716 ], [ -73.935002359203253, 40.682797352265915 ] ] ] } },
{ "type": "Feature", "properties": { "label": "A2.2", "width_mm": 230.0, "height_mm": 197.5, "area_km2": 3.013307699784852, "fill": 0.56935575901789792, "vertices": 158 }, "geometry": { "type": "Polygon", "coordinates": [ [ [ -73.941972656227676, 40.700666082476673 ], [ -73.943035649622146, 40.706539911754234 ], [ -73.943959386148208, 40.711643391147788 ], [ -73.942187766148237, 40.711829064829345 ], [ -73.942902342248004, 40.715777006295284 ], [ -73.9296287, 40.7171672 ], [ -73.9296957, 40.717073900000024 ], [ -73.9297061, 40.7170108 ], [ -73.9294956, 40.7165734 ], [ -73.9295017, 40.7164998 ], [ -73.92932, 40.716112 ], [ -73.9293157, 40.7160781 ], [ -73.929321900000019, 40.7160121 ], [ -73.9293613, 40.715898299999985 ], [ -73.9294198, 40.715785 ], [ -73.9294736, 40.715721500000015 ], [ -73.9295592, 40.7156796 ], [ -73.9302996, 40.7155079 ], [ -73.931493, 40.7152085 ], [ -73.9315589, 40.7152149 ], [ -73.9316593, 40.7152086 ], [ -73.9317927, 40.715183 ], [ -73.9320805, 40.71505650000001 ], [ -73.9321975, 40.7149721 ], [ -73.9322253, 40.714935799999985 ], [ -73.9322354, 40.714882900000028 ], [ -73.93223, 40.714847 ], [ -73.9321737, 40.7147221 ], [ -73.9321413, 40.714681299999988 ], [ -73.9317536, 40.7147417 ], [ -73.9315905, 40.714399500000013 ], [ -73.9315566, 40.7143934 ], [ -73.931542, 40.7143596 ], [ -73.931426, 40.714382299999983 ], [ -73.9313131, 40.714144 ], [ -73.931436, 40.7141262 ], [ -73.9312407, 40.713724800000016 ], [ -73.931453, 40.7134388 ], [ -73.9315914, 40.7133848 ], [ -73.9316453, 40.7133428 ], [ -73.93257770000001, 40.7130891 ], [ -73.9326168, 40.71307370000001 ], [ -73.9326391, 40.7130526 ], [ -73.9326469, 40.7130007 ], [ -73.9320326, 40.711590199999989 ], [ -73.9333848, 40.7112337 ], [ -73.9332835, 40.7109787 ], [ -73.931901, 40.7113385 ], [ -73.9312657, 40.7099244 ], [ -73.9310298, 40.7093585 ], [ -73.9309323, 40.7091653 ], [ -73.93078, 40.7091033 ], [ -73.9307686, 40.7090811 ], [ -73.930756500000015, 40.708973 ], [ -73.9306704, 40.708871100000017 ], [ -73.930543, 40.7087689 ], [ -73.9305159, 40.7087318 ], [ -73.930501, 40.7086812 ], [ -73.9303609, 40.7087177 ], [ -73.9303818, 40.708757800000015 ], [ -73.9303802, 40.7088028 ], [ -73.9303629, 40.7088285 ], [ -73.9302663, 40.708904900000022 ], [ -73.9302504, 40.7089279 ], [ -73.930681, 40.709921 ], [ -73.9309984, 40.7106182 ], [ -73.9311584, 40.711001 ], [ -73.9315461, 40.7118554 ], [ -73.9308597, 40.7120649 ], [ -73.9308016, 40.7120989 ], [ -73.9307794, 40.712133900000012 ], [ -73.9307789, 40.712160399999981 ], [ -73.9308126, 40.7122058 ], [ -73.9308553, 40.71222070000001 ], [ -73.9316103, 40.712038 ], [ -73.9318333, 40.7125075 ], [ -73.9318487, 40.7125648 ], [ -73.9318425, 40.7126272 ], [ -73.9318219, 40.7126795 ], [ -73.9317344, 40.712749299999984 ], [ -73.9305271, 40.71306160000001 ], [ -73.9305011, 40.7130778 ], [ -73.9304229, 40.7131726 ], [ -73.9304226, 40.713191599999988 ], [ -73.9307717, 40.7139295 ], [ -73.9310523, 40.7146102 ], [ -73.9308519, 40.714903 ], [ -73.9299167, 40.7151498 ], [ -73.9299028, 40.715125 ], [ -73.9293141, 40.7152798 ], [ -73.9292537, 40.7153288 ], [ -73.9284388, 40.7155309 ], [ -73.9289024, 40.716572800000016 ], [ -73.928906, 40.716619 ], [ -73.92889550000001, 40.7166595 ], [ -73.9288545, 40.7167226 ], [ -73.9287453, 40.7168251 ], [ -73.9286101, 40.7169123 ], [ -73.9282526, 40.7170986 ], [ -73.9281665, 40.717123300000019 ], [ -73.9280969, 40.717129 ], [ -73.926835, 40.7174596 ], [ -73.9252164, 40.717629 ], [ -73.9242029, 40.717735100000013 ], [ -73.9240483, 40.7176243 ], [ -73.9239313, 40.7175141 ], [ -73.9236399, 40.717320700000016 ], [ -73.923576, 40.7172584 ], [ -73.9234289, 40.717082 ], [ -73.9233536, 40.7169659 ], [ -73.9232316, 40.7166994 ], [ -73.9231678, 40.7164789 ], [ -73.9231172, 40.7164762 ], [ -73.923055, 40.7163427 ], [ -73.9233124, 40.716228800000032 ], [ -73.9233858, 40.7162128 ], [ -73.9234714, 40.7161467 ], [ -73.9236115, 40.7161035 ], [ -73.92359, 40.7160281 ], [ -73.9243133, 40.7158471 ], [ -73.9248329, 40.7152829 ], [ -73.9248855, 40.7152672 ], [ -73.9247663, 40.715032 ], [ -73.9247616, 40.714976 ], [ -73.9246901, 40.714881 ], [ -73.924615, 40.7148271 ], [ -73.9245557, 40.7147537 ], [ -73.9245258, 40.7146904 ], [ -73.9244315, 40.714364800000013 ], [ -73.9244191, 40.7143496 ], [ -73.924390300000013, 40.714349200000036 ], [ -73.9243475, 40.7143071 ], [ -73.9243359, 40.71412260000001 ], [ -73.9240591, 40.7141116 ], [ -73.9240401, 40.7140083 ], [ -73.9231394, 40.7133947 ], [ -73.9222347, 40.712856 ], [ -73.9218188, 40.7117821 ], [ -73.921546, 40.7110433 ], [ -73.9212207, 40.7107906 ], [ -73.9207485, 40.7105336 ], [ -73.9218918, 40.7093961 ], [ -73.921815072112381, 40.709350753265717 ], [ -73.924285867611601, 40.70909223093215 ], [ -73.93204507237742, 40.707793357289759 ], [ -73.931400162401346, 40.704226631799237 ], [ -73.933551205113929, 40.704001368724633 ], [ -73.932889536291583, 40.70034220789497 ], [ -73.930865134921035, 40.700554209776676 ], [ -73.929977366152585, 40.695643206608786 ], [ -73.931495558668331, 40.695484220148039 ], [ -73.931304072613145, 40.694424985374688 ], [ -73.937236009106357, 40.69380358854832 ], [ -73.937389493611889, 40.694572450828502 ], [ -73.937493992761972, 40.695150209772528 ], [ -73.943313579622881, 40.694540272772961 ], [ -73.944376593486922, 40.70041409428827 ], [ -73.941972656227676, 40.700666082476673 ] ] ] } },
{ "type": "Feature", "properties": { "label": "B3", "width_mm": 114.625, "height_mm": 71.0, "area_km2": 0.72023798827337915, "fill": 0.75957996177164966, "vertices": 7 }, "geometry": { "type": "Polygon", "coordinates": [ [ [ -73.926286131184114, 40.683776659104169 ], [ -73.935038468030825, 40.682793293845805 ], [ -73.937236009106357, 40.69380358854832 ], [ -73.931304072613145, 40.694424985374688 ], [ -73.92998124426785, 40.687106623466299 ], [ -73.926945226263527, 40.687424536745226 ], [ -73.926286131184114, 40.683776659104169 ] ] ] } },
{ "type": "Feature", "properties": { "label": "D3", "width_mm": 239.0, "height_mm": 232.0, "area_km2": 3.3657890584062615, "fill": 0.52099814976488379, "vertices": 30 }, "geometry": { "type": "Polygon", "coordinates": [ [ [ -73.930527287953268, 40.653757631440051 ], [ -73.930950127578299, 40.65609818064042 ], [ -73.93178402798678, 40.663565854542398 ], [ -73.927610980832483, 40.664003031316568 ], [ -73.928341584726837, 40.668047418331533 ], [ -73.921006569359022, 40.668815468922055 ], [ -73.920919640005764, 40.66833398912172 ], [ -73.917252094961313, 40.668717836261628 ], [ -73.916834976208932, 40.666406718728666 ], [ -73.919364236153896, 40.666142018176757 ], [ -73.918755864403408, 40.662771647870265 ], [ -73.912812366343545, 40.663393574764989 ], [ -73.911995902321976, 40.658867599908248 ], [ -73.91363975025024, 40.658695619881193 ], [ -73.912810607237731, 40.654099351368004 ], [ -73.91394388348985, 40.653954282409636 ], [ -73.918669494080788, 40.654440859953048 ], [ -73.921092073856968, 40.654301375002802 ], [ -73.920463504598899, 40.650818991151752 ], [ -73.924509342347392, 40.650395315182401 ], [ -73.923866085386408, 40.646832374463763 ], [ -73.927911659783732, 40.646408578613972 ], [ -73.927598645697671, 40.644675265212861 ], [ -73.932528994340004, 40.644158584903266 ], [ -73.932772546067, 40.645506707289449 ], [ -73.939346355753557, 40.644817457539638 ], [ -73.939833749354307, 40.647513672509525 ], [ -73.938443091963833, 40.647659512532599 ], [ -73.939452348826208, 40.653242567025806 ], [ -73.930527287953268, 40.653757631440051 ] ] ] } },
{ "type": "Feature", "properties": { "label": "F3", "width_mm": 189.0, "height_mm": 151.0, "area_km2": 2.6863145094231733, "fill": 0.80789194653377105, "vertices": 20 }, "geometry": { "type": "Polygon", "coordinates": [ [ [ -73.923866085386408, 40.646832374463763 ], [ -73.92383131669699, 40.646639782930414 ], [ -73.922187792073814, 40.646811908844235 ], [ -73.921179722351965, 40.641226733704343 ], [ -73.919662739759147, 40.641385585114818 ], [ -73.918251852640566, 40.62887636772836 ], [ -73.92310914428937, 40.628367626034589 ], [ -73.93242476167903, 40.627894955164138 ], [ -73.933257316249652, 40.632504305947108 ], [ -73.933889295599684, 40.632438045505346 ], [ -73.934741716161454, 40.637156466725038 ], [ -73.938281022824782, 40.636785317998935 ], [ -73.938942357072932, 40.640444475574739 ], [ -73.939172296156343, 40.643854522924435 ], [ -73.939346355753557, 40.644817457539638 ], [ -73.932772546067, 40.645506707289449 ], [ -73.932528994340004, 40.644158584903266 ], [ -73.927598645697671, 40.644675265212861 ], [ -73.927911659783732, 40.646408578613972 ], [ -73.923866085386408, 40.646832374463763 ] ] ] } },
{ "type": "Feature", "properties": { "label": "G3", "width_mm": 96.125, "height_mm": 187.5, "area_km2": 1.9665897062187616, "fill": 0.93650760673324784, "vertices": 7 }, "geometry": { "type": "Polygon", "coordinates": [ [ [ -73.91730060212933, 40.620439716989644 ], [ -73.940426632131604, 40.618015524748365 ], [ -73.942097371837519, 40.627259874544542 ], [ -73.939443290304581, 40.62753833469354 ], [ -73.92310914428937, 40.628367626034589 ], [ -73.918251852640566, 40.62887636772836 ], [ -73.91730060212933, 40.620439716989644 ] ] ] } },
{ "type": "Feature", "properties": { "label": "B4", "width_mm": 233.875, "height_mm": 214.0, "area_km2": 4.8877438644404982, "fill": 0.83819687607706372, "vertices": 21 }, "geometry": { "type": "Polygon", "coordinates": [ [ [ -73.962816362066221, 40.660604282849846 ], [ -73.963688635467875, 40.665418763898522 ], [ -73.961538938881461, 40.665644591250555 ], [ -73.964278217951829, 40.680762051619915 ], [ -73.963392847695886, 40.680855048583254 ], [ -73.963689510733744, 40.682491967733398 ], [ -73.953950040460001, 40.683514509518162 ], [ -73.953566429859336, 40.68139611113498 ], [ -73.940791226043203, 40.682736074974905 ], [ -73.94068671777967, 40.682158318129716 ], [ -73.940111954698423, 40.678980653052918 ], [ -73.938594158440111, 40.679139753504586 ], [ -73.937810575613284, 40.674806556992557 ], [ -73.939075325710562, 40.674673983217943 ], [ -73.938378821463161, 40.670822254197752 ], [ -73.937240611090942, 40.670941564385309 ], [ -73.936439804804365, 40.666512060750065 ], [ -73.937451481644203, 40.666406014793139 ], [ -73.936722519269992, 40.662373721579456 ], [ -73.95687346855533, 40.661228486345088 ], [ -73.962816362066221, 40.660604282849846 ] ] ] } },
{ "type": "Feature", "properties": { "label": "D4", "width_mm": 109.0, "height_mm": 244.625, "area_km2": 2.6851493330198202, "fill": 0.86432341746765773, "vertices": 10 }, "geometry": { "type": "Polygon", "coordinates": [ [ [ -73.930527287953268, 40.653757631440051 ], [ -73.956154592084872, 40.652276799900037 ], [ -73.95585824827242, 40.65063985548646 ], [ -73.960915242409484, 40.650108681941404 ], [ -73.962816362066221, 40.660604282849846 ], [ -73.95687346855533, 40.661228486345088 ], [ -73.934426797627466, 40.662503967419866 ], [ -73.931697380291766, 40.66278999290239 ], [ -73.930950127578299, 40.65609818064042 ], [ -73.930527287953268, 40.653757631440051 ] ] ] } },
{ "type": "Feature", "properties": { "label": "B4.2", "width_mm": 175.0, "height_mm": 222.75, "area_km2": 3.6206777380847139, "fill": 0.7972036581359313, "vertices": 17 }, "geometry": { "type": "Polygon", "coordinates": [ [ [ -73.94068671777967, 40.682158318129716 ], [ -73.940791226043203, 40.682736074974905 ], [ -73.953566429859336, 40.68139611113498 ], [ -73.953950040460001, 40.683514509518162 ], [ -73.963689510733744, 40.682491967733398 ], [ -73.965033402189292, 40.689906234864814 ], [ -73.961617924750868, 40.690264921893153 ], [ -73.962682483051537, 40.696138577397818 ], [ -73.949651605676863, 40.697506090320672 ], [ -73.949808521372773, 40.698372711652333 ], [ -73.944115179268039, 40.698969713267189 ], [ -73.943313579622881, 40.694540272772961 ], [ -73.937493992761972, 40.695150209772528 ], [ -73.937389493611889, 40.694572450828502 ], [ -73.935038468030825, 40.682793293845805 ], [ -73.938034030668248, 40.682456569011457 ], [ -73.94068671777967, 40.682158318129716 ] ] ] } },
{ "type": "Feature", "properties": { "label": "E4", "width_mm": 171.0, "height_mm": 171.0, "area_km2": 2.7132940824624012, "fill": 0.79641571207327722, "vertices": 18 }, "geometry": { "type": "Polygon", "coordinates": [ [ [ -73.956207929083945, 40.635492409315091 ], [ -73.95648678526743, 40.637033064658489 ], [ -73.957497983305927, 40.636926842053242 ], [ -73.959398189805412, 40.647422515041427 ], [ -73.960409540666944, 40.647316266954995 ], [ -73.960915242409484, 40.650108681941404 ], [ -73.95585824827242, 40.65063985548646 ], [ -73.956154592084872, 40.652276799900037 ], [ -73.939452348826208, 40.653242567025806 ], [ -73.938443091963833, 40.647659512532599 ], [ -73.939833749354307, 40.647513672509525 ], [ -73.939172296156343, 40.643854522924435 ], [ -73.939021190682539, 40.64161363486285 ], [ -73.942817142979223, 40.641215451484406 ], [ -73.942434128979627, 40.639097005561105 ], [ -73.948375186498367, 40.638473546558068 ], [ -73.94799201179319, 40.636355118513976 ], [ -73.956207929083945, 40.635492409315091 ] ] ] } },
{ "type": "Feature", "properties": { "label": "F4", "width_mm": 239.125, "height_mm": 174.0, "area_km2": 3.2014379626495857, "fill": 0.66039842939421023, "vertices": 20 }, "geometry": { "type": "Polygon", "coordinates": [ [ [ -73.951799470690148, 40.616821592497502 ], [ -73.95303622925573, 40.623658491226543 ], [ -73.954273207435236, 40.630495185037063 ], [ -73.955284309936189, 40.630388981823302 ], [ -73.956207929083945, 40.635492409315091 ], [ -73.94799201179319, 40.636355118513976 ], [ -73.948375186498367, 40.638473546558068 ], [ -73.942434128979627, 40.639097005561105 ], [ -73.942817142979223, 40.641215451484406 ], [ -73.939021190682539, 40.64161363486285 ], [ -73.938942357072932, 40.640444475574739 ], [ -73.938281022824782, 40.636785317998935 ], [ -73.934741716161454, 40.637156466725038 ], [ -73.933889295599684, 40.632438045505346 ], [ -73.933257316249652, 40.632504305947108 ], [ -73.93242476167903, 40.627894955164138 ], [ -73.939443290304581, 40.62753833469354 ], [ -73.942097371837519, 40.627259874544542 ], [ -73.940426632131604, 40.618015524748365 ], [ -73.951799470690148, 40.616821592497502 ] ] ] } },
{ "type": "Feature", "properties": { "label": "A4", "width_mm": 179.0, "height_mm": 220.0, "area_km2": 4.0299731092565558, "fill": 0.87833787199933044, "vertices": 63 }, "geometry": { "type": "Polygon", "coordinates": [ [ [ -73.962682483051537, 40.696138577397818 ], [ -73.96269993638964, 40.696234866713915 ], [ -73.963585511849274, 40.696141875259926 ], [ -73.964196454359055, 40.699511994250159 ], [ -73.967359360523417, 40.699179809631829 ], [ -73.968177697781414, 40.703692250661405 ], [ -73.9676211, 40.7033485 ], [ -73.9675152, 40.7034374 ], [ -73.9674767, 40.7039499 ], [ -73.9692969, 40.7050883 ], [ -73.9692363, 40.7059943 ], [ -73.969293, 40.7070933 ], [ -73.9698486, 40.708003 ], [ -73.969942, 40.7093021 ], [ -73.9696149, 40.7101477 ], [ -73.9696054, 40.7102708 ], [ -73.9696858, 40.710321699999973 ], [ -73.9700233, 40.7103912 ], [ -73.9700572, 40.710418 ], [ -73.9700678, 40.7104666 ], [ -73.9700354, 40.710509300000012 ], [ -73.96999120000001, 40.7105253 ], [ -73.9696619, 40.710499700000021 ], [ -73.9696311, 40.710656900000025 ], [ -73.9697746, 40.7106863 ], [ -73.9697857, 40.710727200000015 ], [ -73.9697688, 40.7107883 ], [ -73.9697369, 40.7108224 ], [ -73.9696923, 40.710846900000014 ], [ -73.9694181, 40.7109381 ], [ -73.9693743, 40.7110207 ], [ -73.9699077, 40.7112681 ], [ -73.9693104, 40.711107899999988 ], [ -73.9692349, 40.7112405 ], [ -73.969291, 40.7112702 ], [ -73.9692335, 40.711433100000022 ], [ -73.9691448, 40.711457 ], [ -73.9690958, 40.711563100000014 ], [ -73.9688659, 40.7122319 ], [ -73.9688161, 40.7122519 ], [ -73.9688654, 40.71227240000001 ], [ -73.9688382, 40.7123896 ], [ -73.9689408, 40.71241879999998 ], [ -73.968924700000017, 40.7124634 ], [ -73.9687839, 40.7127565 ], [ -73.9687224, 40.712737600000018 ], [ -73.9686661, 40.712857199999988 ], [ -73.9684985, 40.7128069 ], [ -73.9684697, 40.7128247 ], [ -73.968473, 40.712853399999979 ], [ -73.9684423, 40.7129384 ], [ -73.9685597, 40.712987300000016 ], [ -73.9685136, 40.7130901 ], [ -73.954237300000017, 40.7145886 ], [ -73.942902342248004, 40.715777006295284 ], [ -73.942187766148237, 40.711829064829345 ], [ -73.943959386148208, 40.711643391147788 ], [ -73.941972656227676, 40.700666082476673 ], [ -73.944376593486922, 40.70041409428827 ], [ -73.944115179268039, 40.698969713267189 ], [ -73.949808521372773, 40.698372711652333 ], [ -73.949651605676863, 40.697506090320672 ], [ -73.962682483051537, 40.696138577397818 ] ] ] } },
{ "type": "Feature", "properties": { "label": "A5", "width_mm": 235.25, "height_mm": 143.0, "area_km2": 2.0590056928704135, "fill": 0.52532376762141142, "vertices": 174 }, "geometry": { "type": "Polygon", "coordinates": [ [ [ -73.9795592, 40.705743599999984 ], [ -73.9795558, 40.7057702 ], [ -73.9793287, 40.7057654 ], [ -73.9792798, 40.705789500000023 ], [ -73.9792734, 40.7059171 ], [ -73.9792139, 40.7059066 ], [ -73.9791827, 40.7059652 ], [ -73.9790505, 40.705967 ], [ -73.9790577, 40.7059529 ], [ -73.9789292, 40.7059316 ], [ -73.9789311, 40.7059249 ], [ -73.9790608, 40.705946 ], [ -73.9792433, 40.7055512 ], [ -73.9789636, 40.7055022 ], [ -73.9788652, 40.705868 ], [ -73.9788191, 40.7058625 ], [ -73.9789277, 40.705496200000013 ], [ -73.9787383, 40.7054631 ], [ -73.9786391, 40.7058306 ], [ -73.9786016, 40.705823 ], [ -73.978697, 40.7054563 ], [ -73.9786844, 40.7054542 ], [ -73.9786453, 40.705591 ], [ -73.9784656, 40.7055622 ], [ -73.978432, 40.7056786 ], [ -73.9784569, 40.7056847 ], [ -73.978449, 40.7057165 ], [ -73.9784218, 40.705713100000011 ], [ -73.978389, 40.7058303 ], [ -73.9784218, 40.705838 ], [ -73.9784127, 40.7058708 ], [ -73.978381, 40.705866400000012 ], [ -73.9783923, 40.7059707 ], [ -73.9784014, 40.7059724 ], [ -73.9783991, 40.7059827 ], [ -73.9788564, 40.706059499999988 ], [ -73.978853, 40.70606549999998 ], [ -73.9783923, 40.705988800000014 ], [ -73.9783878, 40.706006 ], [ -73.9783447, 40.706 ], [ -73.9783516, 40.705965500000012 ], [ -73.9783742, 40.7059681 ], [ -73.9783629, 40.7058638 ], [ -73.9783414, 40.7058595 ], [ -73.9783471, 40.705825100000013 ], [ -73.9783742, 40.7058303 ], [ -73.978406, 40.7057105 ], [ -73.9783856, 40.7057053 ], [ -73.9783913, 40.7056726 ], [ -73.9784162, 40.705676 ], [ -73.9784541, 40.705560399999989 ], [ -73.9784268, 40.705556800000025 ], [ -73.9785931, 40.704978600000011 ], [ -73.978532, 40.7048765 ], [ -73.9784419, 40.704871399999988 ], [ -73.978162, 40.7045284 ], [ -73.9781769, 40.7044684 ], [ -73.978020700000016, 40.704291 ], [ -73.9773557, 40.704178099999979 ], [ -73.9773388, 40.704229600000012 ], [ -73.977212, 40.7042139 ], [ -73.9775122, 40.7031968 ], [ -73.9773608, 40.703139499999985 ], [ -73.9772954, 40.7031893 ], [ -73.9771356, 40.7030056 ], [ -73.9762386, 40.7047756 ], [ -73.975961, 40.7047155 ], [ -73.9769275, 40.702797800000027 ], [ -73.9766406, 40.7024968 ], [ -73.9761594, 40.70217130000001 ], [ -73.9755346, 40.7030428 ], [ -73.9753299, 40.7029519 ], [ -73.9759475, 40.7020115 ], [ -73.9760059, 40.701946100000015 ], [ -73.975896, 40.7019005 ], [ -73.9758142, 40.701895199999981 ], [ -73.975593, 40.7018138 ], [ -73.9756109, 40.701796800000011 ], [ -73.9755008, 40.7017583 ], [ -73.9754035, 40.7019111 ], [ -73.9745502, 40.701590300000014 ], [ -73.9757995, 40.6997524 ], [ -73.9758003, 40.699685900000027 ], [ -73.9757896, 40.699653499999989 ], [ -73.9757476, 40.6995952 ], [ -73.9756825, 40.6995509 ], [ -73.9756016, 40.6995256 ], [ -73.9755582, 40.6995211 ], [ -73.9754714, 40.6995291 ], [ -73.9753931, 40.6995586 ], [ -73.97536, 40.6995805 ], [ -73.9751825, 40.699872800000016 ], [ -73.9743185, 40.7011943 ], [ -73.9741151, 40.7013053 ], [ -73.973888800000012, 40.7010852 ], [ -73.9737621, 40.70108070000002 ], [ -73.9735442, 40.7008923 ], [ -73.973556, 40.7008676 ], [ -73.97292640000002, 40.7002946 ], [ -73.9725731, 40.7000821 ], [ -73.972392, 40.7001663 ], [ -73.972621, 40.700466 ], [ -73.9729829, 40.700806300000011 ], [ -73.9732686, 40.7010509 ], [ -73.97333, 40.7010509 ], [ -73.9735197, 40.7012257 ], [ -73.9735359, 40.7013275 ], [ -73.973757, 40.701534100000011 ], [ -73.9731868, 40.701669800000019 ], [ -73.972884, 40.7014168 ], [ -73.9728457, 40.701434700000014 ], [ -73.9711382, 40.699917900000031 ], [ -73.970979, 40.69985650000001 ], [ -73.970782, 40.699978700000017 ], [ -73.9708052, 40.7000975 ], [ -73.9725422, 40.7016364 ], [ -73.9725081, 40.7016624 ], [ -73.973324600000012, 40.7024127 ], [ -73.9728351, 40.7027287 ], [ -73.9698256, 40.7002451 ], [ -73.9694866, 40.7005191 ], [ -73.9728389, 40.7033464 ], [ -73.9726694, 40.7035014 ], [ -73.96924540000002, 40.7013647 ], [ -73.9689347, 40.7016159 ], [ -73.9689852, 40.7017471 ], [ -73.9723125, 40.70384450000001 ], [ -73.972158, 40.7039702 ], [ -73.9714566, 40.7035087 ], [ -73.9711034, 40.703459700000018 ], [ -73.9709331, 40.7036248 ], [ -73.9710196, 40.7038156 ], [ -73.9734304, 40.70530140000001 ], [ -73.9746557, 40.7060743 ], [ -73.9743908, 40.7063258 ], [ -73.9733923, 40.705733200000012 ], [ -73.9725488, 40.7062045 ], [ -73.9732988, 40.7066977 ], [ -73.9746297, 40.7076811 ], [ -73.9742362, 40.708024400000014 ], [ -73.9731063, 40.7071356 ], [ -73.97122490000001, 40.7057899 ], [ -73.9710966, 40.705850100000013 ], [ -73.9710044, 40.7068282 ], [ -73.9710569, 40.7069464 ], [ -73.9727576, 40.7088313 ], [ -73.9723203, 40.7090829 ], [ -73.9706698, 40.7072597 ], [ -73.9705406, 40.7073161 ], [ -73.9702622, 40.7068875 ], [ -73.9704888, 40.7054007 ], [ -73.9701689, 40.7053619 ], [ -73.9701808, 40.704929300000032 ], [ -73.968177697781414, 40.703692250661405 ], [ -73.967359360523417, 40.699179809631829 ], [ -73.964196454359055, 40.699511994250159 ], [ -73.963952069943247, 40.698163947217232 ], [ -73.963585511849274, 40.696141875259926 ], [ -73.96269993638964, 40.696234866713915 ], [ -73.961617924750868, 40.690264921893153 ], [ -73.965033402189292, 40.689906234864814 ], [ -73.964474865552106, 40.686824983726829 ], [ -73.970419969110353, 40.686200389380495 ], [ -73.970681903053674, 40.687644712919543 ], [ -73.976500530804856, 40.687033097222866 ], [ -73.977548874620524, 40.692810330256499 ], [ -73.972868284640271, 40.693302347439236 ], [ -73.973741711727001, 40.698116733020704 ], [ -73.98133236045625, 40.697318714223549 ], [ -73.981664500147019, 40.699148156520152 ], [ -73.982188968352531, 40.702036746795294 ], [ -73.979405558371752, 40.702329432359747 ], [ -73.980027842392502, 40.705757217322912 ], [ -73.9795592, 40.705743599999984 ] ] ] } },
{ "type": "Feature", "properties": { "label": "E5", "width_mm": 199.0, "height_mm": 136.0, "area_km2": 2.5322378160240011, "fill": 0.80305941472066245, "vertices": 16 }, "geometry": { "type": "Polygon", "coordinates": [ [ [ -73.974533199884249, 40.645635283597684 ], [ -73.97415396168239, 40.645675174255324 ], [ -73.973735016174757, 40.643364257402368 ], [ -73.965897591443394, 40.644188355959166 ], [ -73.966351161918283, 40.646691879811932 ], [ -73.960409540666944, 40.647316266954995 ], [ -73.959398189805412, 40.647422515041427 ], [ -73.957497983305927, 40.636926842053242 ], [ -73.95648678526743, 40.637033064658489 ], [ -73.955284309936189, 40.630388981823302 ], [ -73.954273207435236, 40.630495185037063 ], [ -73.953907314256327, 40.628473066236083 ], [ -73.963638752977857, 40.627450521947708 ], [ -73.964057248987388, 40.629761479576452 ], [ -73.971513857354481, 40.628977387227373 ], [ -73.974533199884249, 40.645635283597684 ] ] ] } },
{ "type": "Feature", "properties": { "label": "B5", "width_mm": 191.0, "height_mm": 100.0, "area_km2": 1.8045136327680003, "fill": 0.81089005235602096, "vertices": 19 }, "geometry": { "type": "Polygon", "coordinates": [ [ [ -73.970419969110353, 40.686200389380495 ], [ -73.964474865552106, 40.686824983726829 ], [ -73.963392847695886, 40.680855048583254 ], [ -73.964278217951829, 40.680762051619915 ], [ -73.962690331662202, 40.671999713266814 ], [ -73.968634130460131, 40.671375210020365 ], [ -73.968232669013716, 40.669160568711739 ], [ -73.972405772102519, 40.668721918636173 ], [ -73.972685141363755, 40.670262528835522 ], [ -73.973190979772113, 40.670209347622908 ], [ -73.973872024356709, 40.673964577982872 ], [ -73.974504356155549, 40.673898094625763 ], [ -73.975360180158432, 40.678616191776065 ], [ -73.975866079795779, 40.678562998855149 ], [ -73.976704589817842, 40.683184795850309 ], [ -73.975819204732986, 40.683277888400873 ], [ -73.976500530804856, 40.687033097222866 ], [ -73.970681903053674, 40.687644712919543 ], [ -73.970419969110353, 40.686200389380495 ] ] ] } },
{ "type": "Feature", "properties": { "label": "C5", "width_mm": 149.0, "height_mm": 106.875, "area_km2": 1.2464762507427105, "fill": 0.67182596504732761, "vertices": 13 }, "geometry": { "type": "Polygon", "coordinates": [ [ [ -73.97002313569682, 40.657001318888661 ], [ -73.969953321424327, 40.656616164214434 ], [ -73.973594066842665, 40.656233352903612 ], [ -73.971759780113004, 40.665159253873945 ], [ -73.972405772102519, 40.668721918636173 ], [ -73.968232669013716, 40.669160568711739 ], [ -73.968634130460131, 40.671375210020365 ], [ -73.962690331662202, 40.671999713266814 ], [ -73.961538938881461, 40.665644591250555 ], [ -73.963688635467875, 40.665418763898522 ], [ -73.962310501182543, 40.657811879573487 ], [ -73.96610362354555, 40.657413307807481 ], [ -73.97002313569682, 40.657001318888661 ] ] ] } },
{ "type": "Feature", "properties": { "label": "D5", "width_mm": 135.0, "height_mm": 163.0, "area_km2": 2.1229077845134512, "fill": 0.82802782151280996, "vertices": 19 }, "geometry": { "type": "Polygon", "coordinates": [ [ [ -73.980876261637945, 40.647224771418351 ], [ -73.980244188980635, 40.647291290002741 ], [ -73.981746441044635, 40.65557197687891 ], [ -73.979597122923039, 40.655798141933964 ], [ -73.979492320795316, 40.655220418540416 ], [ -73.975067245783492, 40.655685921992287 ], [ -73.975137088607084, 40.656071073603094 ], [ -73.969953321424327, 40.656616164214434 ], [ -73.97002313569682, 40.657001318888661 ], [ -73.962310501182543, 40.657811879573487 ], [ -73.96159539081043, 40.65386399374875 ], [ -73.960409540666944, 40.647316266954995 ], [ -73.966351161918283, 40.646691879811932 ], [ -73.965897591443394, 40.644188355959166 ], [ -73.973735016174757, 40.643364257402368 ], [ -73.97415396168239, 40.645675174255324 ], [ -73.980980179924217, 40.644956951052308 ], [ -73.981414689811004, 40.647352198763215 ], [ -73.980876261637945, 40.647224771418351 ] ] ] } },
{ "type": "Feature", "properties": { "label": "G5", "width_mm": 145.125, "height_mm": 201.0, "area_km2": 2.9492745567166869, "fill": 0.86778489541718418, "vertices": 17 }, "geometry": { "type": "Polygon", "coordinates": [ [ [ -73.977197340038202, 40.614151081018193 ], [ -73.977825708516065, 40.617617638107838 ], [ -73.976814835365047, 40.617724039691169 ], [ -73.977425728064873, 40.621094119002969 ], [ -73.978057555452708, 40.621027615720919 ], [ -73.97912245616088, 40.626901166110308 ], [ -73.977858691040566, 40.627034180824097 ], [ -73.977631752521702, 40.62578243923209 ], [ -73.971060213610244, 40.62647387890474 ], [ -73.971513857354481, 40.628977387227373 ], [ -73.964057248987388, 40.629761479576452 ], [ -73.963638752977857, 40.627450521947708 ], [ -73.953907314256327, 40.628473066236083 ], [ -73.951799470690148, 40.616821592497502 ], [ -73.961529242837969, 40.615799223918913 ], [ -73.968984321054364, 40.615015293256661 ], [ -73.977197340038202, 40.614151081018193 ] ] ] } },
{ "type": "Feature", "properties": { "label": "A5.2", "width_mm": 159.5, "height_mm": 227.875, "area_km2": 2.7440105135064852, "fill": 0.64798294375419729, "vertices": 109 }, "geometry": { "type": "Polygon", "coordinates": [ [ [ -73.9995237, 40.696574800000022 ], [ -73.9994741, 40.696704100000012 ], [ -73.9992947, 40.6967951 ], [ -73.999182, 40.6968852 ], [ -73.998996, 40.6968123 ], [ -73.9989397, 40.6969409 ], [ -73.9988721, 40.696923799999979 ], [ -73.9987646, 40.6971207 ], [ -73.9988712, 40.6971576 ], [ -73.9983776, 40.698063299999987 ], [ -73.998021, 40.698761700000013 ], [ -73.997499, 40.6996389 ], [ -73.9973675, 40.699634199999977 ], [ -73.9971605, 40.6997928 ], [ -73.9971815, 40.69999450000001 ], [ -73.9971758, 40.700106 ], [ -73.9972446, 40.7001414 ], [ -73.9951383, 40.7029741 ], [ -73.9950459, 40.7031318 ], [ -73.9948004, 40.703292 ], [ -73.9946629, 40.7034306 ], [ -73.9949954, 40.703650600000053 ], [ -73.9948824, 40.703788 ], [ -73.9947693, 40.703952900000012 ], [ -73.9947142, 40.7039967 ], [ -73.9947923, 40.704068399999983 ], [ -73.9947923, 40.7040889 ], [ -73.9946981, 40.7041647 ], [ -73.9947761, 40.704245900000011 ], [ -73.9945698, 40.7043763 ], [ -73.9938634, 40.704556 ], [ -73.9938069, 40.704539600000018 ], [ -73.9937746, 40.70444950000001 ], [ -73.9935861, 40.70450910000001 ], [ -73.9936264, 40.7045952 ], [ -73.9935088, 40.7046235 ], [ -73.9926914, 40.7046298 ], [ -73.9925121, 40.7046941 ], [ -73.992127, 40.704689600000016 ], [ -73.992121, 40.704396200000012 ], [ -73.9918616, 40.704086599999989 ], [ -73.9914179, 40.7040041 ], [ -73.9909476, 40.70403240000001 ], [ -73.9907147, 40.7043514 ], [ -73.9905462, 40.7044162 ], [ -73.9903077, 40.7048399 ], [ -73.9902272, 40.704934 ], [ -73.9900911, 40.70494349999997 ], [ -73.9894936, 40.704809 ], [ -73.9893473, 40.7047297 ], [ -73.9892005, 40.704723900000026 ], [ -73.988989, 40.7046904 ], [ -73.9886972, 40.7045646 ], [ -73.9884074, 40.7045545 ], [ -73.9883033, 40.7045405 ], [ -73.98829, 40.7050707 ], [ -73.9879568, 40.7051342 ], [ -73.9872697, 40.7051757 ], [ -73.9868725, 40.70515730000001 ], [ -73.9867768, 40.705129399999983 ], [ -73.9867343, 40.7051073 ], [ -73.9866653, 40.7050496 ], [ -73.9866228, 40.7049786 ], [ -73.9865297, 40.704979100000031 ], [ -73.9864291, 40.7050692 ], [ -73.9864343, 40.7053486 ], [ -73.9847433, 40.705542900000012 ], [ -73.983438100000015, 40.7056441 ], [ -73.9834065, 40.7054664 ], [ -73.9833682, 40.7054611 ], [ -73.983264, 40.705485100000011 ], [ -73.9830864, 40.7054771 ], [ -73.9830899, 40.7055115 ], [ -73.9827416, 40.7055724 ], [ -73.9827486, 40.7055327 ], [ -73.9824596, 40.705508800000011 ], [ -73.982459, 40.7055424 ], [ -73.9823294, 40.705552 ], [ -73.9809251, 40.7053693 ], [ -73.9809086, 40.705907900000014 ], [ -73.9807407, 40.7058552 ], [ -73.98022, 40.7058511 ], [ -73.9802372, 40.7057633 ], [ -73.980027842392502, 40.705757217322912 ], [ -73.979405558371752, 40.702329432359747 ], [ -73.982188968352531, 40.702036746795294 ], [ -73.981664500147019, 40.699148156520152 ], [ -73.98133236045625, 40.697318714223549 ], [ -73.973741711727001, 40.698116733020704 ], [ -73.972868284640271, 40.693302347439236 ], [ -73.978181381481335, 40.692743826845266 ], [ -73.978076533548659, 40.692166104731491 ], [ -73.982504008610334, 40.691700487503056 ], [ -73.982573932117063, 40.692085632927139 ], [ -73.989531307383075, 40.691353600324689 ], [ -73.989181500831691, 40.689427893557799 ], [ -73.996770975477119, 40.688628855648204 ], [ -73.99722600743435, 40.691132244397394 ], [ -74.000804641590065, 40.690755296821699 ], [ -74.0013256, 40.691463100000028 ], [ -74.0019694, 40.691843199999987 ], [ -74.0017436, 40.6924067 ], [ -74.0012701, 40.6932961 ], [ -74.0009587, 40.6940691 ], [ -74.000701, 40.6943879 ], [ -74.0002687, 40.6949658 ], [ -73.999413, 40.6963577 ], [ -73.999479525393355, 40.696488166875845 ], [ -73.9995237, 40.696574800000022 ] ] ] } },
{ "type": "Feature", "properties": { "label": "B6", "width_mm": 236.875, "height_mm": 240.0, "area_km2": 4.3419612105611725, "fill": 0.65552708847145313, "vertices": 64 }, "geometry": { "type": "Polygon", "coordinates": [ [ [ -73.999311, 40.670772599999985 ], [ -73.9999108, 40.6694987 ], [ -74.0003034, 40.6687169 ], [ -74.0010566, 40.6689457 ], [ -74.0014153, 40.668359400000021 ], [ -74.0022151, 40.6685786 ], [ -74.0028948, 40.6673485 ], [ -74.0031908, 40.6672632 ], [ -74.0036946, 40.6674276 ], [ -74.0036303, 40.6675675 ], [ -74.003912321804648, 40.667645690093124 ], [ -74.004177824479569, 40.669105980452343 ], [ -74.002660406146148, 40.66926592616278 ], [ -74.002738148930547, 40.670827787771188 ], [ -74.002854769934345, 40.673170579538677 ], [ -74.003467486348313, 40.676540499345634 ], [ -74.003973347795295, 40.676487182831025 ], [ -74.005006395055148, 40.682167889778349 ], [ -74.005512297959598, 40.682114566534217 ], [ -74.006266195928632, 40.686259444916438 ], [ -74.0058822, 40.686195800000021 ], [ -74.0056299, 40.686784200000012 ], [ -74.0050037, 40.687606 ], [ -74.00481948641935, 40.687879050014686 ], [ -74.0045927, 40.6882152 ], [ -74.0038204, 40.688929599999987 ], [ -74.0034092, 40.689613300000012 ], [ -74.0029757, 40.6904266 ], [ -74.002622693082799, 40.6903254234157 ], [ -74.0019632, 40.6901364 ], [ -74.001853, 40.690388 ], [ -74.0009616, 40.6901288 ], [ -74.0006991, 40.690611900000022 ], [ -74.000804641590065, 40.690755296821699 ], [ -73.99722600743435, 40.691132244397394 ], [ -73.996770975477119, 40.688628855648204 ], [ -73.989181500831691, 40.689427893557799 ], [ -73.989531307383075, 40.691353600324689 ], [ -73.982573932117063, 40.692085632927139 ], [ -73.982504008610334, 40.691700487503056 ], [ -73.978076533548659, 40.692166104731491 ], [ -73.978181381481335, 40.692743826845266 ], [ -73.977548874620524, 40.692810330256499 ], [ -73.975819204732986, 40.683277888400873 ], [ -73.976704589817842, 40.683184795850309 ], [ -73.975866079795779, 40.678562998855149 ], [ -73.975360180158432, 40.678616191776065 ], [ -73.974975917668189, 40.676497863564222 ], [ -73.978264148429474, 40.676152080706458 ], [ -73.978368972811069, 40.676729803792504 ], [ -73.9829218900977, 40.676250868247187 ], [ -73.982834504081168, 40.675769435780992 ], [ -73.987893188537441, 40.67523707765303 ], [ -73.988033064080994, 40.676007363454509 ], [ -73.992459396865314, 40.675541362274977 ], [ -73.992529360921836, 40.675926502415621 ], [ -73.997208586241101, 40.675433684586423 ], [ -73.996491221308546, 40.671486024215838 ], [ -73.998574347761135, 40.671266565100723 ], [ -73.9985582, 40.671335500000012 ], [ -73.9987694, 40.671602 ], [ -73.9989259, 40.671414899999988 ], [ -73.999044539886384, 40.671217024548604 ], [ -73.999311, 40.670772599999985 ] ] ] } },
{ "type": "Feature", "properties": { "label": "C6", "width_mm": 225.0, "height_mm": 246.0, "area_km2": 5.0593567052002877, "fill": 0.78453594669296911, "vertices": 65 }, "geometry": { "type": "Polygon", "coordinates": [ [ [ -74.0011352, 40.6629017 ], [ -74.0009442, 40.6630764 ], [ -74.000834, 40.6630064 ], [ -74.0004941, 40.6633142 ], [ -74.0005378, 40.6633335 ], [ -74.0000302, 40.66382140000001 ], [ -74.0000991, 40.6638563 ], [ -73.9995315, 40.664397499999978 ], [ -74.0029246, 40.6664623 ], [ -74.0022403, 40.6667938 ], [ -74.0020329, 40.666787300000017 ], [ -74.0020467, 40.6667698 ], [ -74.0016195, 40.666766300000013 ], [ -74.0012061, 40.6670181 ], [ -74.0014647, 40.6671696 ], [ -74.0006877, 40.667546 ], [ -73.9999815, 40.6674503 ], [ -73.999026, 40.668443 ], [ -73.9990537, 40.6688518 ], [ -73.9989452, 40.668973800000018 ], [ -73.9990263, 40.6690079 ], [ -73.9990504, 40.6689217 ], [ -73.9990363, 40.66891720000001 ], [ -73.9990432, 40.6688802 ], [ -73.9990637, 40.668873499999989 ], [ -73.9991799, 40.6682966 ], [ -73.9992405, 40.6683063 ], [ -73.9990794, 40.669038300000018 ], [ -73.9986558, 40.6695148 ], [ -73.9989116, 40.6696486 ], [ -73.9989013, 40.6697273 ], [ -73.9989168, 40.669804600000013 ], [ -73.998574347761135, 40.671266565100723 ], [ -73.996491221308546, 40.671486024215838 ], [ -73.997208586241101, 40.675433684586423 ], [ -73.992529360921836, 40.675926502415621 ], [ -73.992459396865314, 40.675541362274977 ], [ -73.988033064080994, 40.676007363454509 ], [ -73.987893188537441, 40.67523707765303 ], [ -73.982834504081168, 40.675769435780992 ], [ -73.9829218900977, 40.676250868247187 ], [ -73.978368972811069, 40.676729803792504 ], [ -73.978264148429474, 40.676152080706458 ], [ -73.974975917668189, 40.676497863564222 ], [ -73.974504356155549, 40.673898094625763 ], [ -73.973872024356709, 40.673964577982872 ], [ -73.973190979772113, 40.670209347622908 ], [ -73.972685141363755, 40.670262528835522 ], [ -73.971759780113004, 40.665159253873945 ], [ -73.972460576808416, 40.661749363669294 ], [ -73.973594066842665, 40.656233352903612 ], [ -73.975137088607084, 40.656071073603094 ], [ -73.975067245783492, 40.655685921992287 ], [ -73.979492320795316, 40.655220418540416 ], [ -73.979597122923039, 40.655798141933964 ], [ -73.985033605274737, 40.655225999686365 ], [ -73.993414142456061, 40.654547479705023 ], [ -73.993902415253132, 40.657235880539645 ], [ -73.997063168898464, 40.656902877920835 ], [ -73.997500501453189, 40.659309990618347 ], [ -74.001925660148046, 40.65884362431656 ], [ -74.002380682374849, 40.661347001679104 ], [ -74.002759992773903, 40.661307018013346 ], [ -74.003275741531041, 40.664144173110003 ], [ -74.0011352, 40.6629017 ] ] ] } },
{ "type": "Feature", "properties": { "label": "D6", "width_mm": 89.125, "height_mm": 125.0, "area_km2": 0.87835428760634615, "fill": 0.67669870018000844, "vertices": 8 }, "geometry": { "type": "Polygon", "coordinates": [ [ [ -73.99760434710123, 40.654207990712422 ], [ -73.985033605274737, 40.655225999686365 ], [ -73.981746441044635, 40.65557197687891 ], [ -73.980244188980635, 40.647291290002741 ], [ -73.980876261637945, 40.647224771418351 ], [ -73.99608764903823, 40.650823622888382 ], [ -73.996972575126151, 40.650730374029735 ], [ -73.99760434710123, 40.654207990712422 ] ] ] } },
{ "type": "Feature", "properties": { "label": "E6", "width_mm": 228.0, "height_mm": 250.0, "area_km2": 5.6750480489987662, "fill": 0.85453500898119161, "vertices": 33 }, "geometry": { "type": "Polygon", "coordinates": [ [ [ -74.00461018001117, 40.643841269405122 ], [ -74.004230970009274, 40.643881259251572 ], [ -74.004300968815059, 40.644266393646376 ], [ -73.999750387579198, 40.644746177003697 ], [ -73.999820361429727, 40.645131314088175 ], [ -73.994511237233027, 40.645690836924821 ], [ -73.994581181832402, 40.646075977155782 ], [ -73.985858806590898, 40.646994666335694 ], [ -73.982597103500623, 40.647632024668219 ], [ -73.981414689811004, 40.647352198763215 ], [ -73.980980179924217, 40.644956951052308 ], [ -73.974533199884249, 40.645635283597684 ], [ -73.971060213610244, 40.62647387890474 ], [ -73.977631752521702, 40.62578243923209 ], [ -73.977858691040566, 40.627034180824097 ], [ -73.98354559440773, 40.626435505203226 ], [ -73.983475734073451, 40.626050357439901 ], [ -73.990931699449021, 40.62526500544633 ], [ -73.991019077747183, 40.625746434516401 ], [ -73.995694796182661, 40.625253675379696 ], [ -73.995799691502569, 40.625831385908619 ], [ -74.00072811856306, 40.625311780794895 ], [ -74.000798077680287, 40.625696918097503 ], [ -74.003072723312727, 40.625457027712024 ], [ -74.003615033628193, 40.628441829178009 ], [ -74.001972163581783, 40.628615095553947 ], [ -74.002654403181069, 40.632370173062228 ], [ -74.001516963842107, 40.632490119653909 ], [ -74.002461643120142, 40.637689457824401 ], [ -74.002967210853782, 40.637636145494014 ], [ -74.003632100600854, 40.64129492969677 ], [ -74.004137694716732, 40.641241612241366 ], [ -74.00461018001117, 40.643841269405122 ] ] ] } },
{ "type": "Feature", "properties": { "label": "G6", "width_mm": 143.125, "height_mm": 250.0, "area_km2": 3.8805437538542202, "fill": 0.93083402277349492, "vertices": 17 }, "geometry": { "type": "Polygon", "coordinates": [ [ [ -73.977197340038202, 40.614151081018193 ], [ -74.0077731, 40.6109284 ], [ -74.010275587985603, 40.624697085479106 ], [ -74.000798077680287, 40.625696918097503 ], [ -74.00072811856306, 40.625311780794895 ], [ -73.995799691502569, 40.625831385908619 ], [ -73.995694796182661, 40.625253675379696 ], [ -73.991019077747183, 40.625746434516401 ], [ -73.990931699449021, 40.62526500544633 ], [ -73.983475734073451, 40.626050357439901 ], [ -73.98354559440773, 40.626435505203226 ], [ -73.97912245616088, 40.626901166110308 ], [ -73.978057555452708, 40.621027615720919 ], [ -73.977425728064873, 40.621094119002969 ], [ -73.976814835365047, 40.617724039691169 ], [ -73.977825708516065, 40.617617638107838 ], [ -73.977197340038202, 40.614151081018193 ] ] ] } },
{ "type": "Feature", "properties": { "label": "C6.2", "width_mm": 223.5, "height_mm": 247.25, "area_km2": 3.3708116035067177, "fill": 0.52354718044666881, "vertices": 150 }, "geometry": { "type": "Polygon", "coordinates": [ [ [ -74.0104633, 40.6626421 ], [ -74.0095507, 40.663267699999977 ], [ -74.0086837, 40.663372 ], [ -74.0061614, 40.661845100000015 ], [ -74.0056859, 40.662274700000012 ], [ -74.0042836, 40.6614449 ], [ -74.0041462, 40.6615616 ], [ -74.0051236, 40.6621446 ], [ -74.005141, 40.6621844 ], [ -74.0056204, 40.662493900000015 ], [ -74.0057849, 40.6625825 ], [ -74.0058271, 40.66259010000001 ], [ -74.005858, 40.6625749 ], [ -74.006227, 40.662787800000025 ], [ -74.0060896, 40.6629224 ], [ -74.0059236, 40.6631083 ], [ -74.0054578, 40.6628614 ], [ -74.0042255, 40.662177 ], [ -74.0038082, 40.6619079 ], [ -74.003488, 40.6622406 ], [ -74.0043656, 40.662735700000013 ], [ -74.004388, 40.6627143 ], [ -74.004555, 40.6628164 ], [ -74.0046016, 40.662767700000011 ], [ -74.0045899, 40.6627337 ], [ -74.0046057, 40.6627189 ], [ -74.0045437, 40.66268010000001 ], [ -74.004733, 40.6624965 ], [ -74.0053581, 40.6628691 ], [ -74.005156, 40.663047400000011 ], [ -74.0050616, 40.662992 ], [ -74.0049716, 40.6630682 ], [ -74.0051923, 40.663201599999987 ], [ -74.0052438, 40.6631552 ], [ -74.0052315, 40.6631185 ], [ -74.0052486, 40.6631056 ], [ -74.0051863, 40.663069600000014 ], [ -74.0053801, 40.662883899999976 ], [ -74.0059975, 40.6632586 ], [ -74.005795, 40.6634362 ], [ -74.0056996, 40.6633768 ], [ -74.0056135, 40.6634584 ], [ -74.0059084, 40.6636383 ], [ -74.0063057, 40.663863400000011 ], [ -74.0077213, 40.6647186 ], [ -74.0077255, 40.6647427 ], [ -74.0076743, 40.664791100000016 ], [ -74.0076388, 40.664796 ], [ -74.0073052, 40.6645976 ], [ -74.0072574, 40.664643 ], [ -74.0072661, 40.664673 ], [ -74.0072528, 40.664690300000011 ], [ -74.0073188, 40.6647299 ], [ -74.0071253, 40.664915200000017 ], [ -74.0065247, 40.664547200000023 ], [ -74.0067069, 40.664363 ], [ -74.0067991, 40.6644183 ], [ -74.0068822, 40.6643404 ], [ -74.0066294, 40.664187900000016 ], [ -74.0065358, 40.6642574 ], [ -74.0066416, 40.664320200000013 ], [ -74.0064498, 40.6645062 ], [ -74.0058416, 40.664138 ], [ -74.0060287, 40.6639591 ], [ -74.0061193, 40.6640106 ], [ -74.0062031, 40.66393020000001 ], [ -74.0060461, 40.66384 ], [ -74.0059926, 40.663890800000011 ], [ -74.0059214, 40.6638496 ], [ -74.0058983, 40.6638757 ], [ -74.00581, 40.663874 ], [ -74.0057578, 40.6639228 ], [ -74.0057797, 40.6639878 ], [ -74.0057481, 40.6640119 ], [ -74.0058233, 40.664054600000014 ], [ -74.0057575, 40.664114400000017 ], [ -74.0058927, 40.6641903 ], [ -74.005749100000017, 40.664326500000016 ], [ -74.0057415, 40.6643818 ], [ -74.0057705, 40.6643975 ], [ -74.0057446, 40.6644176 ], [ -74.005835, 40.664469600000011 ], [ -74.0058083, 40.6644783 ], [ -74.0058492, 40.6645033 ], [ -74.0058221, 40.6645288 ], [ -74.005641400000016, 40.664531500000017 ], [ -74.0056503, 40.6639003 ], [ -74.0043005, 40.6630919 ], [ -74.0042662, 40.6631153 ], [ -74.0036286, 40.66273480000001 ], [ -74.0034035, 40.6629857 ], [ -74.0045924, 40.6637352 ], [ -74.0043229, 40.6640523 ], [ -74.0052813, 40.664657 ], [ -74.0048619, 40.66506480000001 ], [ -74.003275741531041, 40.664144173110003 ], [ -74.002759992773903, 40.661307018013346 ], [ -74.002380682374849, 40.661347001679104 ], [ -74.001925660148046, 40.65884362431656 ], [ -73.997500501453189, 40.659309990618347 ], [ -73.997063168898464, 40.656902877920835 ], [ -73.993902415253132, 40.657235880539645 ], [ -73.993414142456061, 40.654547479705023 ], [ -74.001159638805134, 40.653919819725274 ], [ -73.99760434710123, 40.654207990712422 ], [ -73.996972575126151, 40.650730374029735 ], [ -73.99608764903823, 40.650823622888382 ], [ -73.982597103500623, 40.647632024668219 ], [ -73.985858806590898, 40.646994666335694 ], [ -73.994581181832402, 40.646075977155782 ], [ -73.994511237233027, 40.645690836924821 ], [ -73.999820361429727, 40.645131314088175 ], [ -73.999750387579198, 40.644746177003697 ], [ -74.004300968815059, 40.644266393646376 ], [ -74.004230970009274, 40.643881259251572 ], [ -74.00903426311028, 40.643374628790362 ], [ -74.008929225627668, 40.642796931441126 ], [ -74.013479533599551, 40.642316792620541 ], [ -74.014442798793766, 40.647612308920507 ], [ -74.015809146197157, 40.655122294603018 ], [ -74.0160263, 40.6563157 ], [ -74.0158537, 40.656213200000018 ], [ -74.0154363, 40.6566324 ], [ -74.0161687, 40.657098200000014 ], [ -74.0162518, 40.6575545 ], [ -74.0162606, 40.6576029 ], [ -74.0150474, 40.6569504 ], [ -74.0144213, 40.657608 ], [ -74.015123236127437, 40.658033854126565 ], [ -74.0164898, 40.65886290000001 ], [ -74.0166919, 40.659973200000024 ], [ -74.0155417, 40.6607584 ], [ -74.0140043, 40.659812 ], [ -74.0136627, 40.6600288 ], [ -74.012468500000011, 40.6593164 ], [ -74.012134764830947, 40.659102564694457 ], [ -74.0118386, 40.6589128 ], [ -74.0114222, 40.659328699999989 ], [ -74.011388162998429, 40.659369540324093 ], [ -74.0111075, 40.659706300000011 ], [ -74.0140225, 40.6615297 ], [ -74.0131555, 40.661981599999983 ], [ -74.0126536, 40.6619817 ], [ -74.0102348, 40.6604612 ], [ -74.009506459161443, 40.660042383450786 ], [ -74.0085996, 40.659520899999983 ], [ -74.007458600000021, 40.660558499999986 ], [ -74.007677033404789, 40.660696490867238 ], [ -74.010372, 40.6623989 ], [ -74.0104633, 40.6626421 ] ] ] } },
{ "type": "Feature", "properties": { "label": "B7", "width_mm": 214.5, "height_mm": 126.0, "area_km2": 1.9030272709044833, "fill": 0.60434139509653273, "vertices": 241 }, "geometry": { "type": "Polygon", "coordinates": [ [ [ -74.003912321804648, 40.667645690093124 ], [ -74.0051023, 40.6679756 ], [ -74.0054702, 40.667951300000013 ], [ -74.0055273, 40.6678992 ], [ -74.0058637, 40.6679938 ], [ -74.0059728, 40.6678821 ], [ -74.0060022, 40.6678901 ], [ -74.0062567, 40.6673367 ], [ -74.0062265, 40.667334100000012 ], [ -74.0067739, 40.6661845 ], [ -74.0068368, 40.6662012 ], [ -74.0068715, 40.6661287 ], [ -74.0068332, 40.666093200000013 ], [ -74.0068364, 40.6660561 ], [ -74.0068587, 40.6660337 ], [ -74.0069048, 40.6660215 ], [ -74.00694, 40.666029600000016 ], [ -74.006964, 40.6660514 ], [ -74.0069713, 40.6660793 ], [ -74.0069601, 40.666106400000018 ], [ -74.0069218, 40.6661302 ], [ -74.0068846, 40.666133 ], [ -74.0068499, 40.666204800000017 ], [ -74.0068999, 40.6662192 ], [ -74.006046, 40.6680532 ], [ -74.0047539, 40.6707214 ], [ -74.0054393, 40.6709215 ], [ -74.0066157, 40.6686232 ], [ -74.0068035, 40.6685914 ], [ -74.007548200000016, 40.667051700000016 ], [ -74.0077965, 40.6671598 ], [ -74.0070872, 40.668591399999976 ], [ -74.0098541, 40.6685236 ], [ -74.0115402, 40.6650859 ], [ -74.0157487, 40.6645683 ], [ -74.0169027, 40.664846600000025 ], [ -74.0174445, 40.665268 ], [ -74.017722, 40.6656332 ], [ -74.0185147, 40.6699876 ], [ -74.0185761, 40.6703924 ], [ -74.0186127, 40.670526 ], [ -74.0187239, 40.6711368 ], [ -74.0188024, 40.6715684 ], [ -74.0175104, 40.6710345 ], [ -74.0166877, 40.665437100000027 ], [ -74.0165754, 40.6650385 ], [ -74.0164867, 40.6649305 ], [ -74.0160255, 40.664863 ], [ -74.015937, 40.6654708 ], [ -74.0122797, 40.6657324 ], [ -74.0108766, 40.6686016 ], [ -74.0103568, 40.668642800000015 ], [ -74.0103385, 40.6690782 ], [ -74.0105598, 40.6691905 ], [ -74.0109102, 40.6691905 ], [ -74.0108734, 40.6697101 ], [ -74.0115429, 40.6697843 ], [ -74.0116217, 40.670114300000016 ], [ -74.0115144, 40.670407 ], [ -74.0116253, 40.670581 ], [ -74.0140622, 40.66970580000001 ], [ -74.0142493, 40.66972860000002 ], [ -74.0142418, 40.669808400000015 ], [ -74.0117535, 40.6706578 ], [ -74.0117974, 40.670746300000012 ], [ -74.0118678, 40.6708243 ], [ -74.0119629, 40.6708884 ], [ -74.012078300000013, 40.6709336 ], [ -74.012204900000015, 40.670955399999983 ], [ -74.0123346, 40.6709525 ], [ -74.0124592, 40.670925 ], [ -74.0125172, 40.6709025 ], [ -74.0126196, 40.6708419 ], [ -74.013552, 40.671256900000017 ], [ -74.0136502, 40.6712026 ], [ -74.0137063, 40.6711846 ], [ -74.0138208, 40.671169 ], [ -74.0139363, 40.6711791 ], [ -74.0139913, 40.671193600000016 ], [ -74.0142741, 40.6713793 ], [ -74.0150801, 40.670685700000014 ], [ -74.0151998, 40.670754 ], [ -74.0138727, 40.671880799999983 ], [ -74.0142329, 40.67213 ], [ -74.0155964, 40.670970500000024 ], [ -74.0156863, 40.671038800000012 ], [ -74.0142872, 40.672241199999988 ], [ -74.0142292, 40.6722072 ], [ -74.0129759, 40.6733279 ], [ -74.0133638, 40.6735915 ], [ -74.0151192, 40.672157 ], [ -74.016321, 40.6729083 ], [ -74.0145795, 40.674414 ], [ -74.0149639, 40.674677600000031 ], [ -74.0181684, 40.6719392 ], [ -74.0188009, 40.6722508 ], [ -74.0172714, 40.6736086 ], [ -74.017752500000014, 40.67404770000001 ], [ -74.0177981, 40.674015899999979 ], [ -74.017815200000015, 40.6740304 ], [ -74.017893, 40.673965299999985 ], [ -74.0178797, 40.6739566 ], [ -74.0179443, 40.6738828 ], [ -74.0180108, 40.6739132 ], [ -74.0179576, 40.673986900000031 ], [ -74.0179234, 40.67397540000001 ], [ -74.017836, 40.6740405 ], [ -74.0178569, 40.674057800000021 ], [ -74.0178019, 40.6740954 ], [ -74.0181364, 40.6743586 ], [ -74.0181665, 40.674397399999989 ], [ -74.0181762, 40.6744642 ], [ -74.0180452, 40.6747679 ], [ -74.018024, 40.674852800000011 ], [ -74.0180357, 40.6749588 ], [ -74.0180092, 40.6749935 ], [ -74.0180168, 40.6750094 ], [ -74.0179237, 40.675076 ], [ -74.0179864, 40.6751251 ], [ -74.017834500000021, 40.6752582 ], [ -74.0181499, 40.675467900000022 ], [ -74.0181954, 40.6754404 ], [ -74.0182296, 40.675462099999976 ], [ -74.018298, 40.6754592 ], [ -74.0184124, 40.675365400000025 ], [ -74.0183196, 40.6753028 ], [ -74.018263, 40.6753502 ], [ -74.0181707, 40.6752909 ], [ -74.0183869, 40.675096799999984 ], [ -74.0184752, 40.675153200000011 ], [ -74.0184228, 40.675208100000027 ], [ -74.0185216, 40.6752687 ], [ -74.0187675, 40.6750504 ], [ -74.0188325, 40.675044399999976 ], [ -74.0188663, 40.6750608 ], [ -74.0188851, 40.675087799999979 ], [ -74.0188841, 40.6751183 ], [ -74.0184103, 40.67551910000001 ], [ -74.0184295, 40.6755562 ], [ -74.0184824, 40.6756002 ], [ -74.0185371, 40.6757688 ], [ -74.0185284, 40.6758053 ], [ -74.0185039, 40.6758374 ], [ -74.0184665, 40.675861200000028 ], [ -74.0184207, 40.6758738 ], [ -74.0180175, 40.675884399999987 ], [ -74.0179384, 40.676016 ], [ -74.0178911, 40.6761561 ], [ -74.01788, 40.676228099999989 ], [ -74.017883, 40.6763728 ], [ -74.0179197, 40.6765148 ], [ -74.0179728, 40.676512800000012 ], [ -74.0179769, 40.6765679 ], [ -74.0191089, 40.67654430000001 ], [ -74.0191214, 40.6766156 ], [ -74.0197209, 40.6766134 ], [ -74.0198112, 40.6771089 ], [ -74.0190826, 40.6771396 ], [ -74.0191418, 40.6777231 ], [ -74.0191893, 40.677741200000014 ], [ -74.0192189, 40.677777300000024 ], [ -74.0191774, 40.6778269 ], [ -74.0190826, 40.6778315 ], [ -74.0190411, 40.6778766 ], [ -74.0184304, 40.6779083 ], [ -74.018411, 40.6784071 ], [ -74.018595, 40.6783978 ], [ -74.0186253, 40.678369599999989 ], [ -74.0186624, 40.678394300000029 ], [ -74.0189541, 40.6783815 ], [ -74.0189832, 40.6783524 ], [ -74.0190214, 40.678377199999986 ], [ -74.0194724, 40.6783583 ], [ -74.0195386, 40.678302 ], [ -74.0196631, 40.6783882 ], [ -74.0195521, 40.6784822 ], [ -74.0194286, 40.6784002 ], [ -74.0192794, 40.678404500000013 ], [ -74.0192469, 40.6784318 ], [ -74.0192065, 40.67840790000001 ], [ -74.019064, 40.6784156 ], [ -74.0190326, 40.678443 ], [ -74.0189945, 40.6784199 ], [ -74.0188509, 40.6784234 ], [ -74.0188161, 40.6784516 ], [ -74.0187802, 40.6784302 ], [ -74.0186332, 40.6784336 ], [ -74.0186018, 40.678461 ], [ -74.0185648, 40.678439600000011 ], [ -74.0184054, 40.6784422 ], [ -74.0184179, 40.6785496 ], [ -74.0182703, 40.6785542 ], [ -74.0182831, 40.6787283 ], [ -74.0183407, 40.6787287 ], [ -74.0183831, 40.6787448 ], [ -74.0185788, 40.678983100000011 ], [ -74.0194562, 40.6789325 ], [ -74.0195041, 40.6789423 ], [ -74.0195401, 40.6789682 ], [ -74.0195531, 40.678991500000016 ], [ -74.0195526, 40.6790293 ], [ -74.0192813, 40.6796481 ], [ -74.0189281, 40.6798443 ], [ -74.0189911, 40.679905 ], [ -74.0177253, 40.680661900000032 ], [ -74.0176474, 40.6806019 ], [ -74.0175705, 40.680650600000021 ], [ -74.0174693, 40.6806147 ], [ -74.0152008, 40.68197940000001 ], [ -74.0153206, 40.6821107 ], [ -74.01282, 40.6836224 ], [ -74.0126243, 40.683468700000013 ], [ -74.0121229, 40.6829622 ], [ -74.0121348, 40.6829059 ], [ -74.0141055, 40.681712499999989 ], [ -74.0136086, 40.6812219 ], [ -74.013874, 40.6810098 ], [ -74.0130184, 40.6804124 ], [ -74.0096711, 40.6832687 ], [ -74.010086, 40.6836554 ], [ -74.0107731, 40.68435860000001 ], [ -74.0117827, 40.68376 ], [ -74.0119326, 40.6838877 ], [ -74.0081641, 40.6861747 ], [ -74.0079818, 40.686275800000011 ], [ -74.0079344, 40.6862819 ], [ -74.0078871, 40.686245800000016 ], [ -74.007827, 40.6862406 ], [ -74.0077683, 40.6862491 ], [ -74.0075447, 40.6863182 ], [ -74.0070199, 40.686526400000027 ], [ -74.0064415, 40.686288500000018 ], [ -74.006266195928632, 40.686259444916438 ], [ -74.005512297959598, 40.682114566534217 ], [ -74.005006395055148, 40.682167889778349 ], [ -74.003973347795295, 40.676487182831025 ], [ -74.003467486348313, 40.676540499345634 ], [ -74.002854769934345, 40.673170579538677 ], [ -74.002660406146148, 40.66926592616278 ], [ -74.004177824479569, 40.669105980452343 ], [ -74.003912321804648, 40.667645690093124 ] ] ] } },
{ "type": "Feature", "properties": { "label": "E7", "width_mm": 189.0, "height_mm": 79.0, "area_km2": 1.5512076103685639, "fill": 0.89169473803782673, "vertices": 15 }, "geometry": { "type": "Polygon", "coordinates": [ [ [ -74.010275587985603, 40.624697085479106 ], [ -74.013479533599551, 40.642316792620541 ], [ -74.008929225627668, 40.642796931441126 ], [ -74.00903426311028, 40.643374628790362 ], [ -74.00461018001117, 40.643841269405122 ], [ -74.004137694716732, 40.641241612241366 ], [ -74.003632100600854, 40.64129492969677 ], [ -74.002967210853782, 40.637636145494014 ], [ -74.002461643120142, 40.637689457824401 ], [ -74.001516963842107, 40.632490119653909 ], [ -74.002654403181069, 40.632370173062228 ], [ -74.001972163581783, 40.628615095553947 ], [ -74.003615033628193, 40.628441829178009 ], [ -74.003072723312727, 40.625457027712024 ], [ -74.010275587985603, 40.624697085479106 ] ] ] } }
]
}
