{
"type": "FeatureCollection",
"name": "chunks",
"crs": { "type": "name", "properties": { "name": "urn:ogc:def:crs:OGC:1.3:CRS84" } },
"features": [
{ "type": "Feature", "properties": { "label": "A1", "width_mm": 241.5, "height_mm": 249.125, "area_km2": 4.3361960513191198, "fill": 0.64963631538776745, "vertices": 132 }, "geometry": { "type": "Polygon", "coordinates": [ [ [ -74.000250944765511, 40.711271027774337 ], [ -74.001667097811506, 40.711870366122348 ], [ -74.001909442218803, 40.71153879378361 ], [ -74.006702748100736, 40.713567183951355 ], [ -74.005854589771545, 40.714727719846536 ], [ -74.008796116376359, 40.715972336207344 ], [ -74.010866145395866, 40.716848132171513 ], [ -74.010623826242536, 40.717179723130563 ], [ -74.013374915237236, 40.718343572969204 ], [ -74.0132193, 40.71832280000001 ], [ -74.0130556, 40.719047600000032 ], [ -74.0129164, 40.7197594 ], [ -74.012801, 40.720310499999989 ], [ -74.0127518, 40.720553600000024 ], [ -74.0126834, 40.720860600000037 ], [ -74.0125502, 40.7214925 ], [ -74.0123802, 40.7222994 ], [ -74.0123347, 40.7225081 ], [ -74.0121218, 40.7235626 ], [ -74.0120786, 40.723780299999987 ], [ -74.0118762, 40.7247581 ], [ -74.0118341, 40.724967800000016 ], [ -74.0116556, 40.725886199999984 ], [ -74.0116501, 40.7259123 ], [ -74.0116444, 40.7259393 ], [ -74.0115631, 40.7264011 ], [ -74.0115606, 40.7264266 ], [ -74.011558, 40.726452199999983 ], [ -74.0113868, 40.7282165 ], [ -74.0113846, 40.728238700000048 ], [ -74.011382, 40.728267400000014 ], [ -74.0113797, 40.728293300000033 ], [ -74.011334, 40.728781300000037 ], [ -74.0113257, 40.7288748 ], [ -74.0112968, 40.729130400000017 ], [ -74.0112846, 40.7292306 ], [ -74.0112434, 40.729683699999967 ], [ -74.0112254, 40.729882 ], [ -74.0111782, 40.7304011 ], [ -74.0111749, 40.730426699999988 ], [ -74.0111707, 40.730458599999949 ], [ -74.011077700000016, 40.7314596 ], [ -74.0110525, 40.7317447 ], [ -74.0110404, 40.73188 ], [ -74.0110316, 40.731979 ], [ -74.011006, 40.732264800000031 ], [ -74.0109848, 40.732501900000024 ], [ -74.0109253, 40.733027600000014 ], [ -74.010923, 40.7330521 ], [ -74.0109025, 40.7332692 ], [ -74.0109001, 40.7332949 ], [ -74.0108958, 40.7333491 ], [ -74.0108748, 40.7333506 ], [ -74.01086, 40.733351600000027 ], [ -74.0108466, 40.7333526 ], [ -74.010842, 40.733353800000017 ], [ -74.0107973, 40.7333658 ], [ -74.0107561, 40.73339 ], [ -74.0107265, 40.7334244 ], [ -74.0107185, 40.73347289999996 ], [ -74.0107239, 40.7335148 ], [ -74.0107512, 40.7335562 ], [ -74.0107863, 40.733578800000046 ], [ -74.0108208, 40.733589400000056 ], [ -74.0108281, 40.733591600000018 ], [ -74.0108389, 40.7335931 ], [ -74.0108532, 40.7335952 ], [ -74.0108725, 40.7335979 ], [ -74.0108317, 40.734019600000011 ], [ -74.0108183, 40.734283200000029 ], [ -74.0108009, 40.73446 ], [ -74.0106611, 40.735903 ], [ -74.0106484, 40.7360516 ], [ -74.0106482, 40.736054600000038 ], [ -74.010643700000017, 40.7361092 ], [ -74.0106426, 40.736123199999987 ], [ -74.010629, 40.7362908 ], [ -74.0106278, 40.73630590000004 ], [ -74.0106239, 40.7363538 ], [ -74.0104758, 40.7380735 ], [ -74.0104749, 40.7380832 ], [ -74.0104524, 40.7383471 ], [ -74.0104509, 40.738364200000028 ], [ -74.010424, 40.738801199999976 ], [ -74.010375, 40.7392093 ], [ -74.0105735, 40.73918619999997 ], [ -74.0106637, 40.7391783 ], [ -74.0107324, 40.739171499999983 ], [ -74.0107465, 40.739170100000038 ], [ -74.0108112, 40.739160600000048 ], [ -74.0108606, 40.739162 ], [ -74.0109306, 40.7391709 ], [ -74.0110257, 40.739182299999989 ], [ -74.0111756, 40.7392006 ], [ -74.0113914, 40.739203900000028 ], [ -74.011479, 40.73920589999998 ], [ -74.01155, 40.7392213 ], [ -74.01157480000002, 40.7392578 ], [ -74.0116104, 40.73928130000003 ], [ -74.0115998, 40.7393735 ], [ -74.0115596, 40.739722699999987 ], [ -74.0114961, 40.7404326 ], [ -74.0114911, 40.7404887 ], [ -74.0114816, 40.7405871 ], [ -74.0114733, 40.740694800000028 ], [ -74.0114218, 40.740691499999983 ], [ -74.011400800000018, 40.740710600000028 ], [ -74.0113666, 40.740719400000017 ], [ -74.0113339, 40.74071559999998 ], [ -74.011299, 40.740703 ], [ -74.0112496, 40.740694799999986 ], [ -74.009863300000021, 40.740636 ], [ -74.0096878, 40.7406007 ], [ -74.009607999346159, 40.740951653478888 ], [ -74.00789964361951, 40.740229119350097 ], [ -74.007414803301415, 40.740892286129629 ], [ -74.000330950150541, 40.737895784959051 ], [ -74.00075522856875, 40.737315539994263 ], [ -73.997703937302944, 40.736024615969328 ], [ -73.994543795991987, 40.734687502043727 ], [ -73.996301596904473, 40.732283706825839 ], [ -73.98758484035217, 40.728594797700204 ], [ -73.990312548300182, 40.724864920530905 ], [ -73.990312548300182, 40.724864920530898 ], [ -73.990979274914167, 40.723953162662418 ], [ -73.991914441091538, 40.720332981570827 ], [ -73.995126359343715, 40.715939882477244 ], [ -73.995888928728107, 40.716262639042007 ], [ -73.998070344011211, 40.713278580316171 ], [ -73.998615024109256, 40.713509107388894 ], [ -74.000250944765497, 40.71127102777433 ], [ -74.000250944765511, 40.711271027774337 ] ] ] } },
{ "type": "Feature", "properties": { "label": "B1", "width_mm": 163.75, "height_mm": 172.625, "area_km2": 2.2057980582982606, "fill": 0.70335824289364701, "vertices": 105 }, "geometry": { "type": "Polygon", "coordinates": [ [ [ -73.9751007, 40.7146902 ], [ -73.975249, 40.7143741 ], [ -73.9753907, 40.714076799999987 ], [ -73.9755666, 40.7137047 ], [ -73.9758837, 40.7130283 ], [ -73.9759282, 40.71293330000001 ], [ -73.9760247, 40.7127299 ], [ -73.9761262, 40.712516200000024 ], [ -73.9763225, 40.712103 ], [ -73.9764481, 40.711897 ], [ -73.9765919, 40.7116918 ], [ -73.9767603, 40.711491299999942 ], [ -73.9770097, 40.7112542 ], [ -73.977229122038779, 40.711076306596169 ], [ -73.9774449, 40.710914500000023 ], [ -73.9776681, 40.7107614 ], [ -73.97789090000002, 40.7106248 ], [ -73.9779578, 40.71059 ], [ -73.9780307, 40.7105599 ], [ -73.9781142, 40.7105345 ], [ -73.978199100000012, 40.710514 ], [ -73.9782915, 40.7104999 ], [ -73.9786079, 40.71048050000001 ], [ -73.9786904, 40.71047550000003 ], [ -73.979195, 40.7104441 ], [ -73.9803432, 40.71037279999998 ], [ -73.9803352, 40.7102973 ], [ -73.98043, 40.7102913 ], [ -73.981173, 40.710244299999978 ], [ -73.9812994, 40.710234100000015 ], [ -73.9812473, 40.7098358 ], [ -73.9813335, 40.7098271 ], [ -73.9835151, 40.7096155 ], [ -73.9841868, 40.709549300000035 ], [ -73.9881667, 40.709159699999987 ], [ -73.9883731, 40.7091377 ], [ -73.988416, 40.7091366 ], [ -73.9884526, 40.7091443 ], [ -73.9884773, 40.709161800000011 ], [ -73.9884985, 40.7091902 ], [ -73.9886265, 40.709857 ], [ -73.988573800000012, 40.7098634 ], [ -73.9884968, 40.709873300000034 ], [ -73.9883955, 40.7098854 ], [ -73.9884032, 40.709899499999942 ], [ -73.9884027, 40.7099596 ], [ -73.988422, 40.7099758 ], [ -73.9884165, 40.710014800000039 ], [ -73.9885302, 40.7099597 ], [ -73.9885994, 40.709926200000012 ], [ -73.988614400000017, 40.709918899999977 ], [ -73.9886412, 40.7099228 ], [ -73.988668, 40.709932 ], [ -73.9886908, 40.709946 ], [ -73.9887068, 40.7099616 ], [ -73.9887188, 40.709982500000059 ], [ -73.9891497, 40.7099353 ], [ -73.9893756, 40.709908 ], [ -73.9895306, 40.7098893 ], [ -73.9895831, 40.709882 ], [ -73.9897529, 40.7098586 ], [ -73.9899124, 40.709836499999987 ], [ -73.9899386, 40.7098329 ], [ -73.9904377, 40.7097569 ], [ -73.9906024, 40.709732700000032 ], [ -73.99080050000002, 40.709703600000047 ], [ -73.9908077, 40.7097025 ], [ -73.9911995, 40.709644800000014 ], [ -73.9914114, 40.709615300000024 ], [ -73.9915727, 40.7095928 ], [ -73.9916672, 40.7095796 ], [ -73.9916939, 40.7095756 ], [ -73.9921208, 40.7095128 ], [ -73.992506, 40.709455700000021 ], [ -73.992892, 40.709392800000018 ], [ -73.9929787, 40.7093787 ], [ -73.9930613, 40.709366900000028 ], [ -73.9933789, 40.7093217 ], [ -73.9934231, 40.7093154 ], [ -73.9934627, 40.7093088 ], [ -73.9936353, 40.7092799 ], [ -73.9937667, 40.709258 ], [ -73.9938038, 40.709256700000026 ], [ -73.99388110000001, 40.709254100000031 ], [ -73.9940548, 40.709248800000076 ], [ -73.9941651, 40.709236700000012 ], [ -73.994223500000018, 40.7092303 ], [ -73.9944461, 40.7091979 ], [ -73.9953205, 40.709048399999979 ], [ -73.9960082, 40.708954 ], [ -73.996740905058914, 40.708853179298792 ], [ -73.996220494715999, 40.709565123021108 ], [ -74.000250944765497, 40.71127102777433 ], [ -73.998615024109256, 40.713509107388894 ], [ -73.998070344011211, 40.713278580316171 ], [ -73.995888928728107, 40.716262639042007 ], [ -73.995126359343715, 40.715939882477244 ], [ -73.991914441091538, 40.720332981570827 ], [ -73.990979274914167, 40.723953162662418 ], [ -73.990312548300182, 40.724864920530898 ], [ -73.977675453814712, 40.719515123766584 ], [ -73.979190986443612, 40.717443105880655 ], [ -73.974709627198564, 40.715545441329709 ], [ -73.9749176, 40.7150847 ], [ -73.9751007, 40.7146902 ] ] ] } }
]
}
